[{"Amenity": "bar", "Rating": "four star"}, {"Location": "around", "Cuisine": "asian"}, {"Location": "nearby", "Cuisine": "bbq", "Hours": "open before 5 nearby"}, {"Amenity": "dancing", "Price": "reasonable"}, {"Location": "nearby", "Cuisine": "german"}, {"Location": "around", "Cuisine": "ice cream parlors"}, {"Dish": "pie", "Rating": "good", "Price": "affordable"}, {"Location": "nearby", "Cuisine": "vegan"}, {"Cuisine": "mexican", "Amenity": "<UNK> special"}, {"Location": "along the road", "Cuisine": "beer", "Dish": "ribs"}, {"Location": "around here", "Amenity": "nice view"}, {"Location": "in the theater district", "Cuisine": "indian", "Price": "reasonably"}, {"Hours": "open right now"}, {"Amenity": "allow smoking"}, {"Dish": "pasta", "Price": "not too high"}, {"Location": "avenue"}, {"Hours": "open after midnight", "Price": "reasonable"}, {}, {"Restaurant_Name": "112 eatery"}, {"Amenity": "fin large very small", "Restaurant_Name": "le <UNK> fin"}, {"Location": "nearby", "Cuisine": "breakfast", "Hours": "24 hour"}, {"Location": "<UNK>", "Cuisine": "50s"}, {"Location": "in the area", "Cuisine": "mexican"}, {"Location": "nearby"}, {"Location": "downtown", "Cuisine": "brewpubs"}, {"Location": "near", "Restaurant_Name": "<UNK> near"}, {"Location": "charlestown", "Hours": "open very for lunch"}, {"Location": "in the city", "Restaurant_Name": "chick fil as", "Hours": "open on sunday"}, {"Location": "nearby", "Dish": "chicken wing"}, {"Location": "within ten miles", "Amenity": "child friendly"}, {"Location": "near <UNK>", "Cuisine": "chinese"}, {"Location": "near here", "Hours": "open late until 2 m"}, {"Amenity": "fin fin fin fin fin fin fin fin", "Restaurant_Name": "le <UNK> fin"}, {"Location": "within 5 minutes drive", "Amenity": "extensive beer menu"}, {"Location": "hotel"}, {"Location": "along the way", "Price": "reasonably"}, {"Location": "<UNK> street", "Cuisine": "cambodian"}, {"Location": "east of here", "Cuisine": "fast food"}, {"Cuisine": "fast food", "Amenity": "kid friendly"}, {"Location": "within 5 miles", "Cuisine": "fine dining", "Amenity": "fine dining"}, {"Location": "around here", "Rating": "five star"}, {"Location": "in this town", "Rating": "four star"}, {"Location": "in town", "Amenity": "fun", "Dish": "brisket"}, {"Location": "around boston", "Cuisine": "family", "Amenity": "family style", "Rating": "good"}, {"Location": "near by", "Cuisine": "soul", "Rating": "good"}, {"Location": "in the area", "Cuisine": "greek"}, {"Location": "theater district , back bay", "Cuisine": "greek"}, {"Location": "close by", "Cuisine": "hamburger"}, {"Location": "nearby", "Amenity": "private rooms", "Hours": "available"}, {"Location": "in my neighborhood", "Cuisine": "ice cream", "Hours": "open right now"}, {"Location": "long island", "Cuisine": "indian"}, {"Location": "nearby", "Cuisine": "italian"}, {"Location": "in town", "Amenity": "discounts for <UNK> orders"}, {}, {"Location": "close by", "Amenity": "kid friendly"}, {"Amenity": "kid friendly , valet parking"}, {"Amenity": "locally owned"}, {"Location": "in town"}, {"Location": "in 3 minutes", "Amenity": "drive too 3", "Restaurant_Name": "mcdonalds"}, {"Location": "within 5 miles", "Amenity": "curb curb side", "Price": "mid"}, {"Location": "in this city", "Amenity": "chefs with restaurants", "Rating": "known known"}, {"Location": "nearby", "Cuisine": "new new"}, {"Location": "nearby", "Cuisine": "taco taco", "Hours": "breakfast", "Rating": "nice"}, {"Location": "close by", "Hours": "open 24 hours"}, {"Location": "around here", "Dish": "tomato sauce"}, {"Amenity": "allow smoking"}, {"Location": "near by", "Dish": "hamburgers"}, {"Location": "near by", "Hours": "lunch"}, {"Location": "in the area", "Amenity": "two for one special"}, {"Location": "white st", "Rating": "notable"}, {"Location": "east <UNK> street", "Dish": "cheese", "Price": "reasonably"}, {"Location": "nearby", "Cuisine": "thai"}, {"Location": "around with area", "Amenity": "smoking area"}, {"Amenity": "sugar free"}, {"Location": "nearby", "Amenity": "plenty of parking", "Rating": "great reviews"}, {"Location": "nearby", "Amenity": "outdoor dining"}, {"Location": "<UNK> street", "Cuisine": "brewpub", "Amenity": "large portions , brewpub"}, {"Dish": "hamburgers", "Hours": "open after 1 am"}, {"Location": "way", "Amenity": "fireplace"}, {"Location": "this side of the river"}, {"Hours": "open after 2 am"}, {"Hours": "open 24 hours"}, {"Location": "nearby", "Cuisine": "raw"}, {"Amenity": "take my dog"}, {"Location": "in the area", "Amenity": "happy hour"}, {"Location": "near here", "Amenity": "valet parking"}, {"Location": "within 5 miles", "Amenity": "accept travelers checks"}, {"Location": "nearby", "Cuisine": "rib"}, {"Location": "near government center", "Cuisine": "seafood", "Amenity": "online reservations"}, {"Cuisine": "spanish", "Price": "cheap"}, {"Location": "within 3 miles", "Cuisine": "steak houses"}, {"Cuisine": "sub sandwich", "Amenity": "serve", "Dish": "beer"}, {"Location": "near colonel drive", "Cuisine": "sushi"}, {"Location": "nearby", "Cuisine": "tapas", "Rating": "good reviews"}, {"Location": "florida", "Cuisine": "turkish"}, {"Cuisine": "vegan", "Hours": "open after 11 at night"}, {"Location": "in this town", "Cuisine": "vegetarian"}, {"Cuisine": "vegetarian", "Amenity": "allow online ahead"}, {"Location": "nearby", "Cuisine": "vietnamese"}, {"Location": "long island", "Restaurant_Name": "cracker <UNK>"}, {"Restaurant_Name": "bar la grassa", "Hours": "tomorrow at 7 pm"}, {"Amenity": "allow smoking"}, {"Location": "zip code code", "Cuisine": "asian"}, {"Cuisine": "french", "Amenity": "dine outdoors"}, {"Location": "in town", "Dish": "hot wings"}, {"Location": "in the area", "Cuisine": "chinese", "Rating": "best"}, {"Dish": "borscht"}, {"Location": "directions", "Restaurant_Name": "bradford lantern cafe"}, {"Location": "near me", "Cuisine": "<UNK>"}, {"Dish": "burgers"}, {"Location": "<UNK> street", "Cuisine": "cafes"}, {"Location": "berkeley", "Restaurant_Name": "<UNK> <UNK>"}, {"Cuisine": "chinese"}, {"Restaurant_Name": "dominos"}, {"Location": "closest", "Cuisine": "korean"}, {"Location": "down town", "Amenity": "kid my kid <UNK>"}, {"Cuisine": "japanese"}, {"Location": "casa"}, {"Location": "walking distance distance of the shopping district", "Cuisine": "bar and grill"}, {"Location": "within 3 miles", "Cuisine": "chinese", "Rating": "good"}, {"Location": "close by", "Amenity": "meal under 8"}, {}, {"Location": "north <UNK> street", "Hours": "very late at night"}, {"Location": "close", "Cuisine": "fast food"}, {"Location": "within 10 miles of here", "Cuisine": "gluten free"}, {"Restaurant_Name": "lone star star"}, {"Location": "<UNK>", "Cuisine": "raw"}, {"Amenity": "prix fixe menu", "Price": "reasonable"}, {"Location": "los angeles", "Restaurant_Name": "kfc"}, {"Location": "nearby"}, {"Restaurant_Name": "blue <UNK>"}, {"Amenity": "wear <UNK>"}, {"Amenity": "reservations"}, {"Cuisine": "burger", "Amenity": "smoking section"}, {"Cuisine": "vietnamese", "Price": "cheap"}, {"Cuisine": "fast food"}, {"Restaurant_Name": "long john silvers", "Hours": "this late", "Rating": "highly rated"}, {"Cuisine": "middle eastern", "Price": "great"}, {"Location": "within 15 miles", "Cuisine": "pizza", "Amenity": "buffet"}, {"Location": "downtown", "Cuisine": "pub"}, {"Dish": "bean soup", "Price": "isnt too expensive"}, {"Location": "near here", "Dish": "duck", "Price": "not cheap"}, {"Price": "under 20"}, {"Cuisine": "seafood"}, {"Location": "downtown"}, {"Cuisine": "steak house"}, {"Location": "in town", "Cuisine": "thai fusion"}, {"Location": "nearby", "Cuisine": "italian"}, {"Cuisine": "italian", "Amenity": "on sunday", "Hours": "brunch"}, {"Cuisine": "italian", "Amenity": "wear casual <UNK>"}, {"Amenity": "dine at bar", "Restaurant_Name": "dedham pizzeria that"}, {"Location": "along a hotel", "Cuisine": "latin american"}, {"Cuisine": "burmese", "Amenity": "parking spot"}, {"Location": "not too busy", "Restaurant_Name": "fredas"}, {"Dish": "chowder", "Rating": "good"}, {"Cuisine": "seafood", "Amenity": "kid friendly"}, {"Cuisine": "sushi", "Amenity": "kid friendly"}, {"Cuisine": "italian", "Price": "moderately"}, {"Cuisine": "italian", "Amenity": "takes reservations", "Rating": "nice"}, {"Dish": "<UNK>", "Hours": "lunch", "Price": "not cheap"}, {"Cuisine": "pizza"}, {"Cuisine": "pizzeria", "Amenity": "delivers", "Hours": "after midnight"}, {"Location": "nearby", "Dish": "bean dishes", "Hours": "open after 12 pm"}, {"Dish": "french fries"}, {"Amenity": "bar in"}, {"Price": "between 15"}, {"Cuisine": "thai"}, {"Cuisine": "chinese", "Amenity": "smoking section"}, {"Cuisine": "<UNK>", "Amenity": "hotel"}, {"Cuisine": "malaysian", "Hours": "late at night"}, {"Amenity": "take out", "Dish": "ribs"}, {"Amenity": "dancing", "Rating": "best"}, {"Amenity": "huge price", "Restaurant_Name": "starting gate restaurant"}, {"Location": "closest", "Restaurant_Name": "ihop"}, {"Location": "nearest", "Cuisine": "health"}, {"Location": "waterfront", "Restaurant_Name": "albertos deli", "Hours": "open until 11 pm"}, {"Location": "near <UNK> street", "Cuisine": "ice cream"}, {"Location": "great neck", "Cuisine": "chinese"}, {"Location": "chinatown", "Dish": "pork"}, {"Location": "green st"}, {"Location": "nearest", "Cuisine": "mexican", "Rating": "good quality", "Price": "affordable"}, {"Rating": "5 star ratings"}, {}, {"Location": "close by", "Cuisine": "korean"}, {"Location": "harvard , that", "Cuisine": "chinese", "Amenity": "byob", "Price": "reasonably"}, {"Amenity": "fast service", "Hours": "open before 11 am"}, {"Amenity": "small portions", "Restaurant_Name": "tong villa"}, {"Location": "five mile radius", "Price": "inexpensive"}, {"Price": "under 10"}, {"Cuisine": "italian", "Rating": "4 star"}, {"Location": "within a five minute drive", "Cuisine": "chinese", "Amenity": "buffet", "Hours": "under 12 within"}, {"Location": "in this area", "Cuisine": "diner", "Amenity": "smoking section"}, {"Dish": "burgers", "Hours": "after 12 00 am"}, {"Hours": "brunch"}, {"Restaurant_Name": "pf changs", "Hours": "tonight"}, {"Amenity": "valet parking"}, {"Location": "within 15 miles", "Price": "expensive"}, {"Location": "nearest", "Amenity": "upscale"}, {}, {"Hours": "tonight"}, {"Dish": "pizza"}, {"Location": "nearest", "Cuisine": "chinese"}, {"Location": "manhattan", "Restaurant_Name": "olive garden"}, {"Price": "most expensive"}, {"Cuisine": "pizza"}, {}, {"Location": "north of rd", "Cuisine": "italian"}, {"Cuisine": "burmese", "Price": "affordable"}, {"Location": "closest", "Restaurant_Name": "taco bell"}, {"Location": "nearest", "Cuisine": "sushi"}, {"Location": "nearest", "Restaurant_Name": "wendys"}, {"Cuisine": "vegetarian", "Price": "cheap"}, {"Location": "downtown", "Amenity": "upscale", "Rating": "best reviewed"}, {"Location": "close to home", "Price": "cheap"}, {"Cuisine": "chinese"}, {"Location": "closest , in town", "Cuisine": "sushi bar"}, {"Amenity": "dancing"}, {"Amenity": "live music"}, {"Hours": "open every day"}, {"Location": "along the way", "Hours": "open late"}, {"Hours": "lunch"}, {"Location": "around four miles away", "Cuisine": "italian", "Dish": "pasta"}, {"Location": "closest", "Cuisine": "seafood"}, {"Cuisine": "italian", "Rating": "nice"}, {"Location": "closest", "Cuisine": "chinese"}, {"Location": "cooks"}, {"Cuisine": "diner"}, {"Cuisine": "diner"}, {"Location": "along the waterfront"}, {"Cuisine": "donut"}, {"Location": "nearest", "Cuisine": "indian"}, {"Location": "nearest", "Restaurant_Name": "mcdonalds"}, {"Location": "close by"}, {"Cuisine": "fast food", "Amenity": "accept out of town"}, {"Cuisine": "asian", "Dish": "meats and vegetables"}, {"Cuisine": "italian", "Dish": "<UNK> <UNK>"}, {"Location": "in town", "Cuisine": "chinese", "Amenity": "take out", "Hours": "after midnight"}, {"Location": "down town", "Amenity": "family", "Dish": "<UNK> milk"}, {"Location": "around here", "Cuisine": "italian", "Amenity": "all you can eat buffet"}, {"Location": "close by", "Cuisine": "middle eastern", "Hours": "7 pm"}, {"Location": "in this town", "Amenity": "dance , live music"}, {"Location": "nearby", "Cuisine": "gluten free", "Amenity": "gluten free options"}, {}, {"Location": "baltimore", "Cuisine": "fast food", "Amenity": "accept checks"}, {"Restaurant_Name": "kings"}, {"Location": "around here", "Amenity": "take clients"}, {"Amenity": "smoking area"}, {"Location": "in the mall"}, {"Rating": "good"}, {"Dish": "tacos", "Price": "great"}, {}, {}, {"Cuisine": "pizza", "Hours": "open until midnight", "Rating": "good"}, {"Amenity": "dress code", "Restaurant_Name": "<UNK>"}, {"Location": "theater district", "Amenity": "fine dining"}, {"Restaurant_Name": "<UNK>"}, {"Hours": "open this late"}, {"Location": "<UNK> <UNK> byob", "Amenity": "byob", "Restaurant_Name": "<UNK> <UNK> burrito"}, {"Location": "close by"}, {"Location": "within one mile", "Cuisine": "cajun", "Amenity": "fireplace"}, {"Location": "not too far away", "Cuisine": "irish"}, {"Cuisine": "cajun", "Hours": "open at 11 am", "Price": "reasonably"}, {"Location": "in the mall"}, {"Rating": "reviews"}, {"Cuisine": "bakery", "Hours": "still open"}, {"Location": "<UNK> street"}, {"Amenity": "catering"}, {"Rating": "good"}, {"Dish": "sushi"}, {"Amenity": "wine bar"}, {"Dish": "hummus"}, {"Restaurant_Name": "noodle bar", "Hours": "open"}, {"Restaurant_Name": "<UNK>"}, {"Amenity": "dress code", "Restaurant_Name": "<UNK>"}, {"Location": "st st", "Dish": "corned beef and cabbage"}, {"Location": "in town", "Cuisine": "vegan", "Dish": "vegan pizza"}, {"Amenity": "outdoor parking", "Restaurant_Name": "bellinis"}, {"Amenity": "takeout orders", "Restaurant_Name": "buffalo wild wings"}, {"Restaurant_Name": "burger king"}, {"Amenity": "smoking area", "Restaurant_Name": "<UNK>"}, {"Amenity": "drive thru", "Restaurant_Name": "chuck e cheeses"}, {"Amenity": "kids menu", "Restaurant_Name": "dennys"}, {"Cuisine": "breakfast", "Amenity": "outdoor seating", "Restaurant_Name": "<UNK> restuarant"}, {"Amenity": "take out", "Restaurant_Name": "<UNK>"}, {"Location": "703 fx", "Restaurant_Name": "granit grill", "Price": "cheap"}, {"Amenity": "bar", "Restaurant_Name": "<UNK>"}, {"Amenity": "great decor", "Restaurant_Name": "<UNK> bakery"}, {"Cuisine": "steakhouse", "Amenity": "formal attire", "Restaurant_Name": "<UNK> steakhouse"}, {"Restaurant_Name": "logans"}, {"Restaurant_Name": "mcdonalds", "Hours": "breakfast"}, {"Amenity": "takeout", "Restaurant_Name": "<UNK>"}, {"Amenity": "smoking section", "Restaurant_Name": "mikes cafe"}, {"Amenity": "senior special", "Restaurant_Name": "mikes country"}, {"Amenity": "reservations", "Restaurant_Name": "mister foos"}, {"Amenity": "dress code", "Restaurant_Name": "mortons"}, {"Restaurant_Name": "olive garden"}, {"Restaurant_Name": "<UNK> sushi express"}, {"Restaurant_Name": "white wine"}, {"Amenity": "credit cards", "Restaurant_Name": "pedros mexican restaurant"}, {"Restaurant_Name": "pizza hut"}, {"Amenity": "credit cards", "Restaurant_Name": "quang"}, {"Amenity": "lunch portion option", "Restaurant_Name": "ricatonis"}, {"Location": "<UNK> avenue", "Restaurant_Name": "ruby tuesday", "Dish": "salad bar"}, {"Amenity": "all you can eat buffet"}, {"Location": "newbury have", "Amenity": "brunch", "Restaurant_Name": "<UNK>"}, {"Amenity": "their own parking", "Restaurant_Name": "target", "Rating": "good"}, {"Restaurant_Name": "texas roadhouse", "Hours": "lunch"}, {"Amenity": "senior discounts", "Restaurant_Name": "tgi fridays"}, {"Location": "<UNK> drive"}, {"Location": "downtown", "Cuisine": "asian", "Amenity": "parking"}, {"Location": "kendall square", "Restaurant_Name": "caranova restaurant"}, {"Location": "6 th avenue", "Cuisine": "chinese", "Amenity": "smoking section"}, {"Amenity": "dress code", "Restaurant_Name": "eastside grill"}, {"Location": "close location", "Amenity": "fine dining", "Restaurant_Name": "<UNK> <UNK> bagels"}, {"Location": "in the town", "Cuisine": "italian", "Amenity": "carry out"}, {"Location": "5 th street", "Cuisine": "italian", "Amenity": "dress code"}, {"Location": "along the road", "Amenity": "waterfront dining", "Restaurant_Name": "<UNK> bakery"}, {"Restaurant_Name": "kostas pizza and seafood restaurant", "Price": "<UNK>"}, {"Location": "in the theater district", "Cuisine": "japanese", "Amenity": "deliver", "Restaurant_Name": "<UNK> japanese restaurant"}, {"Location": "7 th avenue", "Amenity": "free parking", "Restaurant_Name": "mcdonalds"}, {"Location": "nearest", "Cuisine": "asian", "Amenity": "kids menu"}, {"Location": "nearest", "Amenity": "room service", "Restaurant_Name": "<UNK> <UNK> <UNK>"}, {"Location": "park park", "Amenity": "online options", "Restaurant_Name": "pho 2000 on state"}, {"Location": "florida", "Cuisine": "pizza", "Amenity": "outdoor parking"}, {"Location": "holbrook", "Amenity": "trendy", "Dish": "egg rolls"}, {"Amenity": "gift shop"}, {"Cuisine": "chinese", "Amenity": "private rooms"}, {"Amenity": "family friendly atmosphere"}, {"Location": "near my location", "Restaurant_Name": "dominos pizza"}, {"Location": "in my town", "Restaurant_Name": "<UNK> boys"}, {"Location": "in the area", "Cuisine": "fast food"}, {}, {"Cuisine": "brewpub", "Price": "under fifteen dollars"}, {"Cuisine": "chinese", "Amenity": "carry out"}, {"Cuisine": "brewpub", "Dish": "beef", "Price": "cheap"}, {"Cuisine": "chinese", "Amenity": "delivers"}, {"Cuisine": "chinese", "Amenity": "take american express"}, {"Cuisine": "chinese", "Amenity": "large buffet"}, {"Rating": "excellent reviews", "Price": "expensive"}, {"Amenity": "clean place to eat", "Price": "reasonable"}, {"Location": "within 10 miles"}, {"Location": "within 6 miles", "Amenity": "fine dining"}, {"Dish": "pancakes"}, {"Location": "local", "Dish": "fruit stand"}, {"Cuisine": "mexican", "Rating": "very good rating"}, {"Amenity": "non <UNK>", "Restaurant_Name": "<UNK> donuts"}, {"Amenity": "drive thru"}, {"Amenity": "live music , happy hour"}, {"Location": "highwood drive", "Restaurant_Name": "oriental kitchen", "Price": "reasonably"}, {"Location": "within 2 miles", "Cuisine": "thai"}, {"Amenity": "take out"}, {"Restaurant_Name": "in and out burger"}, {"Location": "in the area", "Cuisine": "mexican", "Price": "inexpensive"}, {"Cuisine": "italian", "Amenity": "family style"}, {"Location": "atlanta", "Cuisine": "italian"}, {"Location": "within 10 miles", "Cuisine": "italian"}, {"Location": "within 10 miles", "Cuisine": "burger", "Rating": "3 star rated"}, {"Amenity": "causal bar"}, {"Cuisine": "brazilian", "Price": "cheap"}, {"Amenity": "no smoking area", "Price": "cheap"}, {"Cuisine": "thai", "Price": "cheaply"}, {"Location": "nearby", "Cuisine": "chinese"}, {"Cuisine": "chinese", "Amenity": "take out"}, {"Location": "close by"}, {"Location": "close"}, {"Location": "close center"}, {"Location": "in area", "Cuisine": "deli", "Amenity": "eat in area"}, {"Cuisine": "dim sum", "Hours": "open at 8 am"}, {"Amenity": "fancy"}, {"Cuisine": "fast food"}, {"Location": "within 10 miles", "Cuisine": "german"}, {"Location": "stockton ca"}, {"Location": "in the <UNK>", "Cuisine": "burrito", "Rating": "good"}, {"Location": "manhattan", "Cuisine": "deli", "Rating": "good"}, {"Location": "portland or", "Cuisine": "pho", "Rating": "good"}, {"Amenity": "dance floor"}, {"Cuisine": "vegetarian", "Rating": "good"}, {"Restaurant_Name": "jack in the box", "Hours": "open"}, {"Location": "within three miles", "Amenity": "kid friendly"}, {"Location": "local", "Amenity": "outdoors"}, {"Cuisine": "turkish"}, {"Location": "<UNK> salon"}, {"Cuisine": "pizza parlour"}, {"Cuisine": "pizza", "Amenity": "takes credit cards"}, {"Location": "closest", "Dish": "burgers"}, {"Cuisine": "chinese", "Amenity": "takeout"}, {"Location": "near by"}, {}, {"Location": "nearby", "Dish": "pizza"}, {"Location": "local", "Cuisine": "coffee", "Rating": "popular"}, {"Location": "about one mile from my current from current from", "Hours": "lunch , 3 pm"}, {"Amenity": "date"}, {"Location": "near a movie theater", "Hours": "open at 6 pm on saturday"}, {"Location": "near the stadium"}, {"Location": "withing 20 miles", "Amenity": "smoking area"}, {"Amenity": "quick", "Price": "cheap"}, {"Cuisine": "hawaiian"}, {"Amenity": "large on the offers dining"}, {"Amenity": "truck parking", "Rating": "good ratings"}, {"Amenity": "valet access"}, {"Location": "within 5 miles of here", "Hours": "open at 1 am"}, {"Cuisine": "barbeque", "Rating": "review"}, {"Location": "7 hills", "Amenity": "romantic"}, {"Amenity": "romantic"}, {"Amenity": "buy one get one free"}, {"Location": "nearby", "Cuisine": "southwestern", "Hours": "breakfast"}, {"Cuisine": "spanish", "Amenity": "smoke"}, {"Cuisine": "sports bar"}, {"Location": "within fifty miles", "Dish": "apple products"}, {"Location": "no more more here"}, {"Cuisine": "chinese", "Amenity": "take out"}, {"Location": "less than 2 miles from here", "Amenity": "take out", "Dish": "fried chicken"}, {"Location": "near me", "Restaurant_Name": "tgi fridays"}, {"Cuisine": "thai", "Rating": "great rating"}, {"Location": "5 miles away", "Cuisine": "vegan"}, {"Cuisine": "cuban", "Price": "very well"}, {"Location": "local", "Cuisine": "italian"}, {"Cuisine": "ethiopian", "Rating": "good service"}, {"Location": "within 5 miles", "Cuisine": "ethiopian"}, {"Cuisine": "american", "Price": "expensive"}, {"Cuisine": "indian", "Dish": "lamb"}, {"Cuisine": "italian", "Rating": "high ratings"}, {"Cuisine": "brazilian", "Amenity": "on location"}, {"Amenity": "accept discover card"}, {"Cuisine": "chinese"}, {"Cuisine": "fast food", "Dish": "salad"}, {"Cuisine": "italian", "Dish": "cheesecake"}, {"Amenity": "menu , byob", "Dish": "chocolate cake", "Price": "isnt cheap"}, {"Location": "lexington ky"}, {"Location": "los angeles", "Cuisine": "soul"}, {"Location": "in the <UNK> <UNK>", "Cuisine": "chinese", "Rating": "best"}, {"Location": "closest", "Restaurant_Name": "<UNK>"}, {"Location": "closest", "Restaurant_Name": "ihop"}, {"Location": "closest", "Amenity": "drive thru", "Restaurant_Name": "sonic"}, {"Location": "closest"}, {"Location": "nearest"}, {"Location": "nearest", "Restaurant_Name": "mcdonalds"}, {"Location": "nearest", "Price": "placed"}, {"Restaurant_Name": "dominos pizza"}, {"Location": "closest", "Cuisine": "afghan"}, {"Location": "around here", "Amenity": "rock", "Dish": "smoothie"}, {"Location": "nearby", "Amenity": "coupons"}, {"Location": "12 th and pine", "Cuisine": "mexican grill", "Restaurant_Name": "chipotle mexican grill"}, {"Dish": "pizza"}, {"Location": "local", "Cuisine": "italian"}, {"Cuisine": "italian"}, {"Location": "within 5 miles", "Price": "under 15"}, {"Location": "along the route", "Hours": "open before 7 am"}, {"Cuisine": "thai"}, {"Location": "closest", "Cuisine": "brewpub"}, {"Location": "closest", "Restaurant_Name": "dunkin donuts"}, {"Location": "closest", "Cuisine": "<UNK>", "Amenity": "happy hour"}, {"Location": "closest", "Cuisine": "sea food"}, {"Location": "nearest"}, {"Location": "nearest", "Cuisine": "irish"}, {"Location": "in town", "Cuisine": "barbecue", "Rating": "best"}, {"Location": "near central park", "Cuisine": "deli"}, {"Location": "brooklyn heights", "Cuisine": "sushi bar"}, {"Location": "near <UNK>", "Cuisine": "sushi bar"}, {"Restaurant_Name": "china wok"}, {"Cuisine": "pho", "Rating": "good"}, {"Cuisine": "mexican"}, {"Cuisine": "italian", "Rating": "highest rating"}, {"Cuisine": "seafood"}, {}, {"Restaurant_Name": "mcdonalds"}, {"Restaurant_Name": "arbys"}, {"Restaurant_Name": "<UNK> grill"}, {"Location": "closest", "Dish": "sushi"}, {"Location": "closest", "Cuisine": "waffle house"}, {"Location": "buffets town"}, {"Location": "closest"}, {"Location": "best place", "Restaurant_Name": "shake shack"}, {}, {"Location": "near me", "Restaurant_Name": "hard rock hotel"}, {}, {"Location": "along with with along with reviews", "Amenity": "childrens menu", "Rating": "3 stars"}, {"Cuisine": "burger joint"}, {"Location": "within ten minutes", "Cuisine": "chinese", "Rating": "five star"}, {"Rating": "good"}, {"Hours": "open until 11 pm"}, {"Cuisine": "fast food"}, {"Amenity": "kids"}, {"Cuisine": "sports bar", "Amenity": "smoke friendly"}, {"Location": "beverly hills", "Restaurant_Name": "jack in the box"}, {"Location": "in town", "Dish": "meatballs", "Rating": "best"}, {}, {"Cuisine": "food court"}, {"Location": "nearby", "Restaurant_Name": "taco bell"}, {"Location": "around here"}, {"Location": "nearby", "Cuisine": "thai"}, {"Cuisine": "sushi", "Rating": "good reviews", "Price": "isnt too expensive"}, {"Cuisine": "vegan", "Price": "cheap"}, {"Restaurant_Name": "<UNK>"}, {"Restaurant_Name": "<UNK>"}, {"Location": "waterfront", "Restaurant_Name": "anthonys cafe"}, {"Location": "nearst", "Restaurant_Name": "long john silvers"}, {"Location": "closest", "Cuisine": "mexican"}, {"Location": "nearest", "Restaurant_Name": "olive garden"}, {"Restaurant_Name": "izakaya gazen"}, {"Location": "oak street", "Restaurant_Name": "burger king"}, {"Location": "cloest"}, {"Location": "nearest", "Restaurant_Name": "hooters"}, {"Location": "nearest", "Restaurant_Name": "taco bell"}, {"Restaurant_Name": "als"}, {"Restaurant_Name": "olive garden"}, {"Restaurant_Name": "chinese express"}, {"Location": "nearest", "Cuisine": "bagel"}, {}, {"Location": "chicago"}, {"Location": "closest", "Restaurant_Name": "burger king"}, {"Location": "nearest", "Restaurant_Name": "applebees"}, {"Location": "nearest", "Cuisine": "steak house"}, {}, {}, {"Restaurant_Name": "arbys"}, {"Cuisine": "english"}, {"Location": "nearest", "Restaurant_Name": "<UNK>"}, {"Location": "nearest", "Restaurant_Name": "olive garden"}, {"Restaurant_Name": "taco bell"}, {"Location": "nearest", "Cuisine": "fast food"}, {"Location": "next far", "Restaurant_Name": "subway"}, {"Restaurant_Name": "mcdonalds"}, {"Location": "<UNK> road", "Restaurant_Name": "in <UNK> will", "Hours": "open"}, {"Restaurant_Name": "three chimneys"}, {"Location": "drive"}, {"Location": "around", "Restaurant_Name": "burger kings"}, {"Location": "nearby", "Restaurant_Name": "burger kings"}, {"Cuisine": "chinese"}, {}, {"Location": "nearby", "Cuisine": "pizza"}, {}, {"Location": "near me", "Amenity": "bathrooms"}, {"Location": "within 10 miles", "Amenity": "reservations"}, {"Restaurant_Name": "olive garden"}, {"Restaurant_Name": "<UNK> diner", "Price": "average"}, {"Restaurant_Name": "jack in the box"}, {"Restaurant_Name": "subway"}, {"Restaurant_Name": "francoiss"}, {"Cuisine": "bar", "Amenity": "bar"}, {"Location": "in the area", "Rating": "health health health health health"}, {"Cuisine": "coffee"}, {"Location": "nearby"}, {"Location": "closet"}, {"Cuisine": "chinese"}, {"Location": "5 miles from here", "Restaurant_Name": "dennys"}, {"Rating": "good"}, {"Location": "local", "Cuisine": "pizza", "Amenity": "delivers"}, {"Cuisine": "mediterranean", "Amenity": "delivers"}, {"Cuisine": "mexican", "Amenity": "mariachi band"}, {"Location": "within 30 miles", "Amenity": "accepts credit cards"}, {"Amenity": "allows smoking"}, {"Cuisine": "english", "Price": "cheap"}, {"Location": "close by", "Restaurant_Name": "olive garden"}, {"Location": "within 15 minutes", "Cuisine": "lunch"}, {}, {"Cuisine": "chinese"}, {"Location": "within 15 miles", "Cuisine": "large", "Rating": "best"}, {"Cuisine": "spicy"}, {"Cuisine": "<UNK>"}, {"Amenity": "relax"}, {"Location": "nearest", "Restaurant_Name": "sweet tomatoes"}, {"Price": "cheap"}, {"Location": "5 where", "Amenity": "dinner date", "Hours": "dinner"}, {"Dish": "appetizer", "Rating": "good"}, {"Amenity": "business , caters to <UNK>"}, {"Location": "within 1 mile", "Hours": "before 3 pm"}, {"Location": "closest", "Price": "cheap"}, {"Cuisine": "fast food", "Amenity": "carry out"}, {"Location": "nearby", "Restaurant_Name": "subway", "Rating": "4 star"}, {"Location": "close by", "Cuisine": "sushi", "Rating": "5 star rated"}, {"Hours": "brunch", "Price": "cheap"}, {"Hours": "open currently"}, {"Cuisine": "deli", "Amenity": "caters"}, {"Amenity": "family friendly", "Hours": "tonight"}, {"Amenity": "kid friendly", "Hours": "lunch"}, {"Amenity": "kid friendly", "Dish": "sushi"}, {"Cuisine": "korean barbecue"}, {"Hours": "late night"}, {"Location": "5 mile radius", "Amenity": "take the diners card"}, {"Cuisine": "middle eastern", "Amenity": "friendly service"}, {"Amenity": "kids", "Hours": "at 12 pm"}, {"Amenity": "smoking"}, {"Dish": "enchiladas", "Hours": "open every day"}, {"Amenity": "quick"}, {"Location": "nearest", "Cuisine": "asian", "Amenity": "reservation for 12 at at 6"}, {"Location": "nearest", "Cuisine": "steakhouse"}, {"Amenity": "lots of parking", "Restaurant_Name": "nations"}, {"Location": "nearby", "Cuisine": "thai"}, {"Amenity": "reservation", "Restaurant_Name": "hooters", "Hours": "two <UNK>"}, {"Location": "within 5 miles", "Price": "expensive"}, {"Cuisine": "italian", "Amenity": "big portions", "Price": "inexpensive"}, {"Cuisine": "italian", "Amenity": "kids menu"}, {"Location": "kingsdale st", "Amenity": "bar atmosphere", "Price": "unbelievably"}, {"Restaurant_Name": "luigis pizza"}, {"Location": "closest", "Dish": "pancake"}, {"Location": "nearest", "Cuisine": "ethiopian"}, {"Location": "downtown", "Amenity": "delivered from"}, {"Cuisine": "gluten free free"}, {"Cuisine": "soul"}, {"Restaurant_Name": "wendys", "Hours": "opening hours"}, {"Location": "within 2 miles", "Amenity": "carry out", "Dish": "pizza"}, {"Location": "nearest", "Cuisine": "sushi"}, {"Location": "beacon hill", "Amenity": "quick service", "Dish": "potato fries"}, {"Location": "way to work"}, {"Price": "decently"}, {"Location": "closest", "Restaurant_Name": "chic fil a", "Hours": "still serving"}, {"Location": "gulf shores", "Restaurant_Name": "<UNK> restaurant"}, {"Hours": "breakfast"}, {"Location": "near here", "Restaurant_Name": "galvins harp and bard"}, {"Hours": "open every day"}, {"Location": "government center", "Rating": "good", "Price": "decent"}, {"Hours": "breakfast , 5 30 am"}, {"Cuisine": "seafood"}, {}, {"Location": "nearby", "Cuisine": "mexican", "Hours": "right now"}, {"Dish": "sushi"}, {"Amenity": "carry out", "Rating": "5 star"}, {"Restaurant_Name": "cambridge <UNK>"}, {}, {"Location": "nearby", "Dish": "milkshake"}, {"Dish": "milkshake", "Price": "great"}, {"Cuisine": "greek"}, {"Location": "within 5 miles", "Cuisine": "chinese"}, {"Location": "around here", "Cuisine": "pad thai", "Hours": "open all day"}, {"Cuisine": "health", "Amenity": "smoking"}, {"Location": "near the <UNK>", "Amenity": "allows smoking"}, {"Location": "smith st", "Dish": "toast"}, {"Amenity": "nice service", "Hours": "open after 9 pm"}, {"Amenity": "carry out", "Dish": "potato soup"}, {"Cuisine": "taco truck", "Dish": "taco"}, {"Cuisine": "steakhouse", "Amenity": "valet parking"}, {"Restaurant_Name": "mcdonalds"}, {"Location": "closest", "Cuisine": "mexican", "Price": "cheap"}, {"Dish": "pizza"}, {"Cuisine": "pizza", "Amenity": "kid friendly , carry out"}, {"Amenity": "pet friendly"}, {"Dish": "chips"}, {"Restaurant_Name": "taco bell"}, {"Amenity": "full of <UNK>"}, {"Location": "close by"}, {"Cuisine": "fast food"}, {"Dish": "tacos"}, {"Cuisine": "mexican", "Amenity": "take out", "Hours": "right now"}, {"Location": "in town", "Dish": "spiciest wings"}, {"Cuisine": "classy classy", "Amenity": "very classy restaurant"}, {"Cuisine": "fast food"}, {"Dish": "hamburgers"}, {"Location": "in the area", "Rating": "best"}, {"Cuisine": "mexican"}, {"Dish": "pasta"}, {"Cuisine": "sushi", "Dish": "sushi"}, {"Cuisine": "isnt fast food"}, {"Location": "lower east side side", "Cuisine": "german", "Hours": "saturday and or sunday"}, {"Cuisine": "kosher", "Dish": "<UNK> and sandwiches"}, {"Location": "nearby", "Cuisine": "coffee", "Rating": "highest customer ratings"}, {"Location": "in my area", "Cuisine": "new new", "Amenity": "just opened"}, {"Dish": "beef patties"}, {"Dish": "pizza , slice"}, {"Amenity": "clean clean service", "Rating": "very clean service"}, {"Dish": "spaghetti and meatballs"}, {"Amenity": "diet friendly"}, {"Amenity": "outdoor dining , permits smoking"}, {"Cuisine": "italian"}, {"Amenity": "nonsmoking"}, {"Cuisine": "french", "Rating": "best rated"}, {"Location": "in <UNK> city", "Restaurant_Name": "chez yogis"}, {"Cuisine": "chinese"}, {"Cuisine": "coffee", "Hours": "breakfast , after 11 am"}, {}, {"Location": "nearby", "Amenity": "dancing"}, {"Location": "within 10 minutes", "Dish": "tomato sauce", "Rating": "good", "Price": "nicely"}, {"Location": "nearby", "Price": "average"}, {"Location": "downtown", "Cuisine": "indian"}, {"Restaurant_Name": "taco bell"}, {"Location": "downtown"}, {"Dish": "tacos"}, {"Location": "around here", "Cuisine": "indian"}, {"Amenity": "catering"}, {"Amenity": "reserve", "Restaurant_Name": "<UNK> grill", "Hours": "friday friday friday"}, {}, {"Dish": "exotic"}, {"Amenity": "new", "Hours": "tonight"}, {"Dish": "dumplings", "Price": "expensive"}, {"Location": "10 miles", "Cuisine": "steakhouse", "Amenity": "outdoor dining"}, {"Location": "near my house", "Amenity": "smoke free"}, {"Location": "nearby", "Cuisine": "food"}, {"Location": "less than 5 miles away", "Dish": "dim sum"}, {"Location": "in the area"}, {"Cuisine": "fish", "Rating": "recommendations"}, {"Cuisine": "pizza", "Amenity": "outdoor seating"}, {"Dish": "tofu", "Hours": "at 12 pm", "Price": "reasonable"}, {"Cuisine": "french", "Rating": "at least 4 stars"}, {"Location": "nearby", "Cuisine": "mexican"}, {"Cuisine": "soul"}, {"Cuisine": "vegan"}, {"Cuisine": "vegeterian"}, {}, {"Cuisine": "chinese"}, {"Rating": "best"}, {"Restaurant_Name": "wendys"}, {"Cuisine": "breakfast"}, {"Location": "near here", "Cuisine": "ice cream"}, {"Cuisine": "coffee", "Dish": "pie"}, {"Cuisine": "farm vegetables", "Dish": "farm vegetables"}, {"Cuisine": "lunch lunch", "Hours": "lunch", "Price": "right"}, {"Cuisine": "american , american", "Amenity": "not part of chain", "Price": "reasonably"}, {"Cuisine": "halal"}, {"Cuisine": "breakfast"}, {"Cuisine": "pub", "Amenity": "internet access", "Price": "cheap"}, {"Location": "nearby", "Cuisine": "chinese"}, {"Cuisine": "diner", "Dish": "<UNK> cheese , soup"}, {"Cuisine": "middle eastern", "Amenity": "off the beaten <UNK>"}, {"Location": "closest", "Restaurant_Name": "starbucks", "Hours": "open past 9 pm"}, {"Cuisine": "thai", "Amenity": "carryout"}, {"Location": "chinatown", "Cuisine": "bakery"}, {"Location": "in my dishes", "Cuisine": "organic", "Dish": "fruits"}, {"Location": "ten mile radius"}, {"Amenity": "fun"}, {"Cuisine": "chinese"}, {"Dish": "burger", "Rating": "tasty"}, {"Amenity": "large portions"}, {"Location": "around", "Rating": "good"}, {"Cuisine": "thai"}, {"Dish": "tacos"}, {"Amenity": "quick"}, {"Cuisine": "chinese"}, {"Location": "nearby", "Cuisine": "chinese", "Rating": "best ratings"}, {"Cuisine": "mexican"}, {"Dish": "chili"}, {"Cuisine": "light", "Amenity": "light light light light light light light light light light", "Dish": "light"}, {"Amenity": "ive never tried"}, {"Location": "closest", "Rating": "5 star"}, {"Cuisine": "chinese", "Price": "moderate"}, {"Location": "along my route", "Cuisine": "diner"}, {"Location": "two miles", "Cuisine": "family", "Amenity": "eat style at the bar"}, {"Amenity": "romantic , romantic", "Rating": "nice"}, {"Cuisine": "pizza", "Amenity": "credit card", "Dish": "buffalo chicken , chicken"}, {"Dish": "apple pie"}, {"Location": "near me"}, {"Cuisine": "steak", "Amenity": "valet parking"}, {"Cuisine": "mexican", "Amenity": "all you can eat buffet"}, {"Cuisine": "asian"}, {"Cuisine": "spanish", "Price": "cheap"}, {"Location": "nearby", "Cuisine": "brazilian", "Amenity": "special occasion"}, {"Price": "not too much money"}, {"Dish": "sushi", "Price": "affordable"}, {"Location": "within a mile of here", "Hours": "open before ten in the morning", "Rating": "good"}, {"Location": "nearest"}, {}, {}, {"Location": "closest"}, {"Cuisine": "fast food"}, {}, {"Cuisine": "fast food"}, {"Location": "closest", "Restaurant_Name": "mcdonalds"}, {"Location": "port", "Cuisine": "spanish"}, {"Location": "within 10 miles of sunswept hotel", "Amenity": "family friendly , gift shop beach"}, {"Amenity": "smoke"}, {"Cuisine": "indian"}, {"Location": "nearby", "Restaurant_Name": "dairy queen"}, {"Restaurant_Name": "albertos deli", "Hours": "open until 11 pm"}, {"Amenity": "date spot", "Restaurant_Name": "azita restaurant"}, {"Location": "close by"}, {"Location": "way"}, {"Restaurant_Name": "<UNK> today", "Hours": "open today"}, {"Hours": "lunch", "Rating": "good"}, {"Hours": "open after midnight"}, {"Location": "san <UNK>", "Amenity": "family friendly"}, {"Amenity": "kids friendly", "Restaurant_Name": "golden house restaurant"}, {"Cuisine": "ice cream", "Hours": "open right now"}, {"Location": "within a mile", "Restaurant_Name": "jade garden"}, {"Restaurant_Name": "outback"}, {"Restaurant_Name": "panera bread", "Hours": "open for breakfast"}, {"Location": "way", "Restaurant_Name": "papa johns", "Hours": "still open"}, {"Location": "dayton street", "Restaurant_Name": "<UNK> <UNK>"}, {"Restaurant_Name": "quiznos", "Hours": "open for breakfast"}, {"Location": "chattanooga tn", "Amenity": "romantic", "Restaurant_Name": "ruby tuesdays"}, {"Location": "san nights", "Restaurant_Name": "santa ramen", "Hours": "on thursday"}, {"Price": "expensive"}, {"Location": "within a mile from here", "Restaurant_Name": "chau restaurant"}, {"Location": "near here", "Restaurant_Name": "amaral manuel", "Hours": "open after 12 pm"}, {"Price": "affordable"}, {"Location": "nearby", "Amenity": "live music", "Restaurant_Name": "hoseas"}, {"Location": "near my house", "Restaurant_Name": "mcdonalds", "Hours": "open after midnight"}, {"Hours": "lunch", "Rating": "good"}, {"Location": "<UNK> <UNK>", "Amenity": "patio friendly", "Restaurant_Name": "<UNK> and and the"}, {"Location": "closer than the chinese", "Cuisine": "chinese"}, {}, {"Hours": "open until 11 am"}, {"Location": "within 10 miles from my house", "Cuisine": "fresh mex"}, {"Restaurant_Name": "seven <UNK>"}, {"Cuisine": "steakhouse", "Hours": "open seven days a week"}, {"Location": "in <UNK> good for", "Amenity": "date night", "Restaurant_Name": "tea garden restaurant"}, {"Location": "north end", "Rating": "good"}, {"Location": "baltimore", "Restaurant_Name": "tylers restaurant"}, {"Location": "in this town", "Cuisine": "indian"}, {"Location": "near here", "Cuisine": "bakery"}, {"Location": "within a 5 minute distance", "Hours": "open after 2 am"}, {"Location": "in this city", "Restaurant_Name": "<UNK>"}, {"Location": "<UNK>", "Restaurant_Name": "bojangles"}, {"Cuisine": "breakfast", "Amenity": "valet parking"}, {"Amenity": "business", "Hours": "until 1 am"}, {"Location": "in fort <UNK>", "Cuisine": "cafe", "Dish": "<UNK> legs"}, {"Location": "nearby", "Cuisine": "fast food", "Price": "cheap"}, {"Location": "nearby", "Cuisine": "vegetarian", "Price": "cheap"}, {"Location": "within 5 miles of here", "Restaurant_Name": "chick fil a"}, {"Cuisine": "chinese", "Amenity": "buffet"}, {"Location": "in the <UNK> mall", "Cuisine": "chinese"}, {"Location": "in a mile of where", "Restaurant_Name": "chipotle"}, {"Location": "<UNK> st", "Restaurant_Name": "bella bella"}, {"Location": "watertown", "Amenity": "bar", "Restaurant_Name": "club diner"}, {"Location": "nearby", "Cuisine": "deli", "Amenity": "credit cards", "Hours": "open right now"}, {"Location": "boxford", "Cuisine": "diner", "Amenity": "patio"}, {"Location": "within 5 miles", "Amenity": "beer list"}, {"Amenity": "dress code", "Restaurant_Name": "yuris dine"}, {"Hours": "open late", "Rating": "five star"}, {"Location": "oakland", "Cuisine": "diner", "Rating": "good"}, {"Location": "close by", "Rating": "good"}, {"Cuisine": "vegan", "Amenity": "kids", "Rating": "good"}, {"Location": "downtown", "Cuisine": "halal", "Amenity": "eat outside"}, {"Location": "this town", "Restaurant_Name": "hidden tudors <UNK> world"}, {"Location": "in this area", "Restaurant_Name": "hooters"}, {"Location": "around here", "Restaurant_Name": "jacks restaurant"}, {"Location": "near by", "Cuisine": "japanese"}, {"Cuisine": "korean", "Amenity": "<UNK> friendly"}, {"Cuisine": "korean", "Amenity": "nice decor", "Hours": "open late"}, {"Location": "west newbury where", "Amenity": "smoke", "Hours": "late night"}, {"Location": "near by", "Amenity": "happy hour"}, {"Location": "near roxbury", "Cuisine": "malaysian"}, {"Location": "around here", "Cuisine": "food court", "Restaurant_Name": "mall with court"}, {"Location": "between here", "Restaurant_Name": "mcdonalds"}, {"Location": "nearby", "Restaurant_Name": "mcdonalds"}, {"Location": "within two miles", "Restaurant_Name": "mcdonalds"}, {"Location": "near here", "Cuisine": "mexican", "Amenity": "large portion sizes"}, {"Location": "in this area", "Cuisine": "french", "Price": "moderately"}, {"Location": "theater district"}, {"Location": "sacramento with sacramento", "Amenity": "fireplace", "Price": "nicely"}, {"Location": "nearby", "Restaurant_Name": "olive garden"}, {"Location": "nearby"}, {"Amenity": "patio", "Restaurant_Name": "w a frost"}, {"Location": "near by", "Dish": "tapas"}, {"Hours": "this late"}, {"Amenity": "bring my own alcohol"}, {"Location": "theatre theatre district", "Hours": "open after midnight"}, {"Amenity": "a friendly , <UNK> on the menu", "Dish": "steak"}, {"Location": "close by", "Hours": "still open at 10 pm"}, {"Location": "nearby", "Rating": "high tea"}, {"Location": "walking distance of the the the <UNK>", "Dish": "pizza , slice"}, {"Location": "within 10 minutes", "Amenity": "atmosphere", "Rating": "great"}, {"Location": "near here", "Restaurant_Name": "ponderosa near"}, {"Location": "nearby"}, {"Location": "nearby", "Cuisine": "portuguese"}, {"Location": "north memphis", "Cuisine": "<UNK>"}, {"Location": "in kendall square", "Hours": "8 pm", "Price": "cheap"}, {"Amenity": "perfect portion sizes", "Price": "reasonably"}, {"Location": "in the area", "Restaurant_Name": "red lobster"}, {"Location": "around here", "Dish": "chicken wings"}, {"Location": "around where", "Amenity": "watch game"}, {"Location": "close by", "Amenity": "dancing"}, {"Location": "close by", "Amenity": "valet parking"}, {"Location": "inman square", "Hours": "after 9 pm"}, {"Location": "south end", "Amenity": "fireplace"}, {"Location": "way"}, {"Location": "waverly street"}, {"Rating": "5 star rating"}, {"Location": "charlestown", "Dish": "tacos", "Hours": "before noon"}, {"Location": "nearby", "Amenity": "bar scene"}, {"Location": "<UNK> mall", "Restaurant_Name": "<UNK>"}, {"Location": "nearby", "Amenity": "view", "Restaurant_Name": "sclafani italian bakery"}, {"Location": "around here", "Cuisine": "seafood"}, {"Location": "in franklin that", "Cuisine": "small place", "Amenity": "small", "Dish": "beans beans"}, {"Amenity": "smoking section", "Restaurant_Name": "olive garden"}, {"Location": "minneapolis , minneapolis", "Cuisine": "sports bar"}, {"Location": "west side of town", "Restaurant_Name": "starbucks"}, {"Location": "within 10 miles", "Cuisine": "pizza"}, {"Location": "north end"}, {"Location": "near the college", "Cuisine": "taco joint"}, {"Location": "around here", "Amenity": "taking a date", "Restaurant_Name": "el <UNK>"}, {"Cuisine": "thai", "Amenity": "wine list"}, {"Location": "within 5 miles", "Cuisine": "vegan"}, {"Location": "close to me", "Price": "very high"}, {}, {"Location": "near providence highway", "Cuisine": "fast food"}, {"Location": "berkeley avenue", "Restaurant_Name": "white castle"}, {"Location": "nearby", "Cuisine": "asia cafe"}, {"Location": "near by or similar bar", "Amenity": "bar and grill", "Restaurant_Name": "apple bees"}, {"Location": "hicksville ny", "Amenity": "special", "Restaurant_Name": "applebees"}, {"Location": "north <UNK>", "Cuisine": "english", "Hours": "open until midnight"}, {"Location": "nearby", "Amenity": "<UNK> friendly"}, {"Amenity": "dining services", "Price": "expensive"}, {"Location": "near here", "Price": "expensive"}, {"Location": "near by", "Restaurant_Name": "ihop"}, {"Location": "within 5 miles", "Cuisine": "indian", "Hours": "dinner"}, {"Location": "nearby", "Cuisine": "italian"}, {"Location": "nearby", "Cuisine": "italian"}, {"Location": "kendall square", "Amenity": "private dining rooms", "Restaurant_Name": "olive garden"}, {"Location": "nearby", "Restaurant_Name": "taco taco"}, {"Location": "in this part of town", "Cuisine": "thai"}, {"Location": "nearby", "Amenity": "small portions", "Restaurant_Name": "s"}, {"Location": "west side side", "Cuisine": "deli", "Hours": "24 hour"}, {"Location": "nearby", "Cuisine": "chinese"}, {"Location": "nearby", "Cuisine": "cuban", "Amenity": "authentic dining"}, {"Location": "in the area", "Rating": "good"}, {"Amenity": "bring your own liquor"}, {"Location": "in this area", "Amenity": "outdoor seating"}, {"Location": "nearby", "Cuisine": "seafood"}, {"Location": "waterfront", "Amenity": "does not allow smoking on the outside"}, {"Hours": "open after 9 pm"}, {"Cuisine": "fast food", "Amenity": "quick"}, {"Amenity": "take my pet"}, {"Location": "by mall", "Restaurant_Name": "red lobster"}, {"Location": "close", "Amenity": "live music"}, {"Location": "in the city"}, {"Location": "near kendall square", "Amenity": "delivers"}, {"Dish": "fried chicken", "Hours": "late night"}, {"Location": "by"}, {"Location": "in kendall square", "Amenity": "delivers", "Dish": "tea"}, {"Location": "near here", "Hours": "open 24 hours"}, {"Location": "near me", "Dish": "sandwich", "Rating": "great"}, {"Hours": "open past 1 am", "Price": "<UNK>"}, {"Hours": "after 10 p m"}, {"Location": "around here", "Cuisine": "caribbean"}, {"Location": "near by"}, {"Location": "near", "Price": "moderately"}, {"Location": "long island", "Restaurant_Name": "fatty fish"}, {"Restaurant_Name": "pierres"}, {"Amenity": "kid friendly"}, {}, {"Location": "local"}, {"Hours": "open 7 days a week"}, {"Amenity": "smoke free"}, {"Location": "way", "Amenity": "clients", "Restaurant_Name": "ye olde cottage"}, {"Hours": "10 pm , open"}, {"Amenity": "quick"}, {"Amenity": "kid friendly", "Rating": "nice"}, {"Amenity": "parking", "Restaurant_Name": "king fung garden two"}, {"Location": "in the city", "Cuisine": "french"}, {"Dish": "fries"}, {}, {"Location": "within a ten mile location"}, {"Location": "close"}, {"Location": "nearest , <UNK> and and and ashland", "Restaurant_Name": "mcdonalds", "Dish": "ashland"}, {"Dish": "lobster roll"}, {"Location": "local", "Dish": "fish tacos"}, {"Location": "local", "Restaurant_Name": "hooters"}, {"Location": "local", "Restaurant_Name": "mcdonalds"}, {"Amenity": "smoking areas"}, {"Location": "local", "Restaurant_Name": "subway"}, {"Hours": "open after 10 pm", "Rating": "five star"}, {"Dish": "milk"}, {"Cuisine": "sushi"}, {"Location": "within 5 miles", "Restaurant_Name": "mcdonalds"}, {"Amenity": "all you can eat buffet"}, {"Cuisine": "bar"}, {"Location": "nearest", "Cuisine": "fast food"}, {"Location": "nearest"}, {"Location": "in chattanooga <UNK>", "Cuisine": "mexican", "Price": "inexpensive"}, {"Cuisine": "<UNK>"}, {"Rating": "5 star", "Price": "great"}, {"Cuisine": "diner", "Amenity": "comfortable atmosphere , <UNK> setting"}, {"Location": "close by", "Amenity": "drive through", "Hours": "opened 24 7"}, {"Dish": "cheese fries"}, {"Location": "within a 5 miles", "Cuisine": "italian", "Rating": "high end", "Price": "high end"}, {"Restaurant_Name": "kfc"}, {"Amenity": "kid friendly", "Price": "mid"}, {"Rating": "highest <UNK> ratings"}, {"Location": "near", "Rating": "strong", "Price": "strong"}, {"Cuisine": "<UNK>", "Amenity": "takes online reservations"}, {"Location": "along my current route within the route", "Rating": "three star"}, {"Cuisine": "seafood", "Amenity": "reservation for 6"}, {"Location": "nearby", "Amenity": "hip music"}, {"Cuisine": "breakfast", "Amenity": "byob"}, {"Cuisine": "californian", "Price": "great"}, {"Location": "along the way"}, {"Location": "near here"}, {"Dish": "duck , dish", "Rating": "good rating", "Price": "great"}, {"Restaurant_Name": "freebirds world burrito", "Hours": "open late"}, {"Location": "central square", "Price": "great"}, {"Restaurant_Name": "pizzahut"}, {"Location": "close by"}, {"Cuisine": "diners", "Price": "reasonably"}, {"Amenity": "generous portions"}, {"Location": "close by", "Restaurant_Name": "marios italian restaurant"}, {"Amenity": "prix fixe menu", "Price": "reasonable"}, {"Cuisine": "tapas", "Price": "great"}, {"Price": "cheapest"}, {"Location": "around here", "Price": "excellent"}, {"Amenity": "parking", "Dish": "tuna"}, {"Location": "bay"}, {"Cuisine": "sake", "Amenity": "allows smoking", "Price": "very cheap"}, {"Restaurant_Name": "black angus"}, {"Restaurant_Name": "melting pot", "Hours": "8 pm"}, {"Cuisine": "french", "Rating": "at least 4 star rating"}, {"Cuisine": "french", "Restaurant_Name": "the the restaurant", "Hours": "tonight"}, {"Hours": "tonight", "Rating": "four at"}, {"Location": "30 minutes from now", "Amenity": "nonsmoking , nonsmoking"}, {}, {"Location": "nearest", "Restaurant_Name": "red lobster"}, {"Cuisine": "mexican"}, {"Cuisine": "mexican"}, {"Location": "nearby", "Cuisine": "mexican"}, {"Cuisine": "seafood", "Price": "moderately"}, {"Location": "within 10 min", "Dish": "espresso"}, {"Hours": "lunch"}, {}, {"Amenity": "sit outside", "Dish": "cheeseburgers"}, {"Location": "nearest", "Restaurant_Name": "five guys"}, {"Location": "local"}, {"Cuisine": "thai", "Rating": "4 stars"}, {"Location": "nearest", "Cuisine": "fast food"}, {"Location": "in a hotel", "Rating": "four star"}, {"Location": "in detroit", "Restaurant_Name": "the steak shack", "Hours": "tonight"}, {"Location": "newbury directions", "Cuisine": "bakery and deli"}, {"Location": "nyc", "Cuisine": "pizza", "Rating": "5 star"}, {"Rating": "best service"}, {"Amenity": "take my clients"}, {"Cuisine": "japanese"}, {"Cuisine": "mexican", "Amenity": "smoking section", "Rating": "1"}, {"Dish": "cocktails", "Hours": "lunch"}, {"Location": "near my house", "Cuisine": "taco"}, {"Cuisine": "italian", "Amenity": "child friendly"}, {"Location": "nearby", "Cuisine": "chinese", "Price": "cheap"}, {"Amenity": "child friendly , tv"}, {"Cuisine": "seafood", "Amenity": "on site parking"}, {"Location": "nearest", "Cuisine": "thai"}, {}, {"Location": "closest", "Amenity": "sit down", "Dish": "chicken <UNK> , macaroni macaroni macaroni macaroni macaroni macaroni macaroni macaroni"}, {"Location": "this area", "Restaurant_Name": "dennys"}, {"Location": "nearest", "Cuisine": "made to order", "Dish": "cheeseburger"}, {"Location": "nearest", "Restaurant_Name": "burger king"}, {"Amenity": "allows smoking"}, {"Location": "within 5 miles"}, {"Cuisine": "bar", "Hours": "open late late", "Rating": "good reviews"}, {"Restaurant_Name": "mcdonalds"}, {"Restaurant_Name": "jax cafe", "Hours": "7 pm"}, {"Location": "highway", "Amenity": "curb side"}, {"Location": "closest", "Cuisine": "coffee"}, {"Cuisine": "sushi", "Rating": "reviews"}, {"Rating": "highly rated"}, {"Cuisine": "pub"}, {"Dish": "hot dog"}, {"Cuisine": "irish", "Price": "reasonably"}, {"Amenity": "no smoking", "Restaurant_Name": "red lobster"}, {"Restaurant_Name": "red robins"}, {"Amenity": "caters , kids <UNK>"}, {"Location": "in the area"}, {"Amenity": "visa or master master card"}, {}, {"Location": "within 5 miles", "Amenity": "smoke free environment"}, {"Dish": "meatloaf"}, {}, {"Cuisine": "fast food", "Amenity": "kid play area"}, {"Cuisine": "seafood"}, {"Location": "within 10 miles", "Price": "inexpensive"}, {"Location": "local", "Amenity": "smoking area"}, {"Location": "in my area"}, {"Amenity": "senior portions"}, {"Price": "cheap"}, {"Location": "arent far", "Cuisine": "mexican"}, {"Location": "nearby", "Rating": "3 star or higher"}, {"Location": "in a ten mile radius", "Cuisine": "japanese", "Price": "moderately"}, {"Location": "closest", "Restaurant_Name": "wendys"}, {"Location": "nearest", "Restaurant_Name": "boston market"}, {"Location": "nearest"}, {"Amenity": "smoke friendly"}, {}, {"Hours": "before 8 am"}, {"Restaurant_Name": "strega restaurant and lounge"}, {"Location": "<UNK>", "Cuisine": "fish", "Rating": "best"}, {"Location": "near my location", "Cuisine": "tacos", "Dish": "tacos"}, {"Cuisine": "dessert", "Rating": "best"}, {"Amenity": "hole in the wall", "Dish": "drinks", "Hours": "open late and serve drinks", "Rating": "high reviews"}, {"Location": "local"}, {"Amenity": "generous portions", "Rating": "nice"}, {}, {"Location": "closest", "Amenity": "smoke in"}, {"Location": "nearest", "Cuisine": "tex mex"}, {"Location": "midtown", "Restaurant_Name": "chipotle"}, {"Location": "within a 5 minute drive"}, {"Location": "this town", "Rating": "good"}, {"Cuisine": "thai"}, {"Location": "in town", "Amenity": "dress code", "Price": "expensive"}, {"Location": "nearby", "Cuisine": "pizza"}, {"Location": "off to bell bell", "Restaurant_Name": "taco bell", "Dish": "tacos"}, {"Location": "nearest", "Cuisine": "fast food"}, {"Location": "near <UNK> avenue", "Cuisine": "mushrooms", "Hours": "before 7 am"}, {}, {"Amenity": "kid friendly"}, {"Amenity": "dance"}, {"Location": "in the area"}, {"Location": "in this city", "Rating": "best"}, {"Rating": "locally favourite"}, {"Location": "in one mile", "Cuisine": "american"}, {"Restaurant_Name": "<UNK>", "Price": "average"}, {"Restaurant_Name": "siu kuen chinese"}, {"Restaurant_Name": "<UNK> cafe"}, {"Location": "next 6 miles of this road", "Cuisine": "fast food"}, {"Restaurant_Name": "<UNK> <UNK>"}, {"Restaurant_Name": "red lobster"}, {"Restaurant_Name": "<UNK> restaurant"}, {"Cuisine": "italian", "Rating": "reviews"}, {"Restaurant_Name": "cappys pizza and subs"}, {"Location": "in my area", "Rating": "highest rated"}, {"Cuisine": "asian", "Amenity": "carry out"}, {"Location": "in the area", "Cuisine": "chicken"}, {}, {"Location": "near by", "Cuisine": "fast food"}, {"Location": "in town", "Dish": "dumplings", "Rating": "best"}, {"Location": "nearby"}, {"Location": "dorche", "Cuisine": "vietnamese", "Amenity": "family friendly"}, {"Location": "in the area", "Cuisine": "italian", "Amenity": "family style meals"}, {"Restaurant_Name": "dominos"}, {"Restaurant_Name": "jack in the box"}, {"Location": "route <UNK>", "Restaurant_Name": "burger king"}, {"Location": "in my city", "Restaurant_Name": "townline pizza", "Rating": "average"}, {"Restaurant_Name": "olive garden"}, {"Restaurant_Name": "ruby tuesday"}, {"Location": "near here", "Cuisine": "coffee", "Rating": "best"}, {"Cuisine": "ice cream parlor"}, {"Location": "in town", "Cuisine": "mexican", "Rating": "best"}, {"Location": "theater district", "Dish": "pizza", "Rating": "best"}, {"Location": "around", "Rating": "best"}, {"Location": "kansas city", "Cuisine": "steak house", "Rating": "best"}, {"Location": "closest", "Cuisine": "bar"}, {"Location": "closest", "Restaurant_Name": "chic fil a"}, {"Location": "closest", "Cuisine": "fast food"}, {"Location": "closest", "Restaurant_Name": "wendys"}, {"Amenity": "dress code", "Restaurant_Name": "<UNK>"}, {"Restaurant_Name": "the <UNK>"}, {"Restaurant_Name": "planet hollywood"}, {"Restaurant_Name": "ruth chris steakhouse"}, {"Restaurant_Name": "kiosque"}, {"Restaurant_Name": "sonic"}, {"Location": "here"}, {"Location": "in austin", "Cuisine": "thai", "Rating": "highest rated"}, {"Location": "in the area"}, {"Location": "within 15 miles", "Amenity": "dress code", "Price": "expensive"}, {"Location": "near me", "Cuisine": "italian", "Rating": "most popular"}, {"Location": "alston", "Cuisine": "greek", "Price": "expensive"}, {"Location": "within 50 miles"}, {"Location": "seminary street", "Cuisine": "coffee"}, {"Location": "nearest", "Cuisine": "fast food"}, {"Location": "closest", "Cuisine": "chinese"}, {"Location": "nearby", "Dish": "garlic shrimp"}, {"Restaurant_Name": "bills pizza"}, {"Location": "east side of town", "Restaurant_Name": "mcdonalds"}, {"Location": "oak street"}, {"Location": "martys marina", "Restaurant_Name": "martys"}, {"Restaurant_Name": "clarkes family restaurant"}, {"Location": "mesa arizona", "Restaurant_Name": "pho <UNK>", "Dish": "pho"}, {"Restaurant_Name": "arbys"}, {}, {"Restaurant_Name": "mcdonalds"}, {"Location": "dalton street", "Cuisine": "italian", "Hours": "open 24 hours"}, {"Restaurant_Name": "<UNK>"}, {"Restaurant_Name": "<UNK> serve"}, {"Restaurant_Name": "<UNK> <UNK>"}, {"Restaurant_Name": "<UNK> cafe"}, {}, {"Restaurant_Name": "<UNK> sell"}, {"Cuisine": "kosher", "Amenity": "smoking <UNK>"}, {"Location": "local", "Amenity": "outdoor play area for young children"}, {"Location": "nearby", "Amenity": "<UNK> service", "Hours": "open past midnight"}, {"Location": "nearby", "Amenity": "byob"}, {"Location": "nearby", "Rating": "best reviews"}, {"Location": "nearby"}, {"Location": "nearby", "Dish": "pancake"}, {"Location": "no farther farther 4 miles", "Dish": "toppings"}, {"Location": "saugus", "Amenity": "best decor"}, {"Price": "cheap"}, {"Price": "great"}, {"Price": "good"}, {"Location": "roxbury", "Hours": "open before 8 am"}, {"Hours": "dinner"}, {}, {"Cuisine": "vegan", "Price": "cheap"}, {"Hours": "open till 10 pm"}, {"Cuisine": "middle eastern"}, {"Amenity": "entertainment", "Price": "expensive"}, {"Hours": "open till 9 pm"}, {"Location": "nearby", "Price": "affordable"}, {"Location": "south side has", "Dish": "sauce"}, {"Location": "close", "Dish": "crab"}, {"Hours": "7 days per week"}, {"Location": "within 10 mile", "Amenity": "largest portions"}, {"Location": "within 25 miles", "Rating": "<UNK> quality"}, {"Location": "close to the museum"}, {"Location": "nearby"}, {"Location": "downtown area"}, {"Hours": "open past midnight"}, {"Hours": "still this late"}, {"Location": "within 1 mile", "Price": "good"}, {"Location": "around here", "Amenity": "free wi fi"}, {"Location": "downtown", "Hours": "open after 9 p"}, {"Location": "close to a hotel"}, {"Amenity": "family friendly", "Hours": "brunch"}, {"Dish": "ribs and ice cream"}, {"Location": "within 5 miles", "Hours": "open after 2 am"}, {"Location": "closest", "Cuisine": "fast food"}, {"Location": "around here", "Cuisine": "seafood", "Amenity": "biggest portions"}, {"Restaurant_Name": "burger king"}, {"Restaurant_Name": "jollibees"}, {"Restaurant_Name": "<UNK> restaurant"}, {"Restaurant_Name": "king palace palace dimsum", "Dish": "dimsum"}, {"Restaurant_Name": "little johns open", "Hours": "on sunday"}, {"Location": "main street", "Restaurant_Name": "mcdonalds", "Hours": "open"}, {"Location": "seminary seminary stop"}, {"Restaurant_Name": "papa johns"}, {"Restaurant_Name": "red robin"}, {"Restaurant_Name": "sonic"}, {"Restaurant_Name": "sonic"}, {"Restaurant_Name": "subway"}, {"Location": "main street", "Restaurant_Name": "burger king", "Hours": "closes"}, {"Location": "nearest", "Restaurant_Name": "chipotle", "Hours": "close"}, {"Location": "reno close"}, {"Location": "near me", "Cuisine": "sushi"}, {}, {"Location": "near here", "Restaurant_Name": "mcdonals"}, {"Restaurant_Name": "<UNK>"}, {"Cuisine": "vegetarian", "Restaurant_Name": "zaxbys"}, {"Amenity": "business , <UNK> <UNK> to to", "Rating": "<UNK> <UNK>"}, {"Location": "near <UNK>", "Cuisine": "pakistani", "Price": "cheap"}, {"Amenity": "casual date", "Rating": "good"}, {"Location": "near here", "Cuisine": "southwestern", "Price": "nicely"}, {"Location": "east", "Rating": "popular"}, {"Location": "san diego", "Cuisine": "belgian", "Price": "expensive"}, {"Hours": "open after noon"}, {"Cuisine": "sub sandwich", "Amenity": "locally owned"}, {"Location": "memphis", "Cuisine": "barbeque", "Rating": "best"}, {"Location": "sacramento", "Cuisine": "french", "Rating": "best"}, {"Location": "in the area", "Cuisine": "indian", "Rating": "best"}, {"Location": "around here", "Dish": "cheese", "Rating": "best"}, {"Location": "within 10 blocks from us", "Rating": "best"}, {"Location": "cheapest", "Cuisine": "fast food", "Amenity": "play area for children"}, {"Location": "closest", "Price": "cheapest"}, {"Location": "closest", "Cuisine": "chinese"}, {"Location": "closest", "Cuisine": "pizza"}, {"Location": "closest", "Amenity": "full salad bar", "Rating": "full salad"}, {"Location": "back bay", "Hours": "open until midnight"}, {"Location": "around here", "Cuisine": "steak house", "Rating": "most popular"}, {"Location": "nearest", "Cuisine": "pizza", "Dish": "anchovies"}, {"Location": "north side", "Cuisine": "thai", "Amenity": "family owned"}, {}, {"Location": "napa", "Restaurant_Name": "bouchon"}, {"Location": "<UNK> route", "Restaurant_Name": "mcdonalds"}, {"Restaurant_Name": "burger burger"}, {"Restaurant_Name": "churchs"}, {"Restaurant_Name": "dominos"}, {"Restaurant_Name": "pizza patron"}, {"Restaurant_Name": "subway"}, {"Restaurant_Name": "white castle"}, {"Location": "in driving distance", "Cuisine": "fast food"}, {"Cuisine": "mexican"}, {"Location": "around here", "Amenity": "formal dress code"}, {"Amenity": "group"}, {"Dish": "fried chicken"}, {"Amenity": "dine outside", "Dish": "pork chops chops"}, {"Amenity": "sit down", "Dish": "pho", "Hours": "dinner"}, {"Cuisine": "african", "Price": "cheap"}, {"Location": "around here"}, {"Location": "close by"}, {"Dish": "pita bread", "Hours": "late at night"}, {"Amenity": "delivers"}, {"Amenity": "valet parking"}, {"Price": "isnt cheap"}, {"Location": "reservation", "Amenity": "reservation , reservation"}, {"Cuisine": "cambodian"}, {"Location": "peabody", "Price": "cheap"}, {"Location": "within 10 miles", "Cuisine": "coffee", "Amenity": "not part of a chain"}, {"Cuisine": "coffee zone", "Amenity": "dining", "Rating": "good rating"}, {"Location": "miami", "Restaurant_Name": "cracker barrel"}, {"Hours": "open after 11 pm", "Rating": "good"}, {"Location": "in within miles", "Rating": "good"}, {"Dish": "pork", "Rating": "good"}, {"Location": "theatre district", "Rating": "good"}, {"Location": "<UNK> street", "Hours": "open after 11 pm"}, {"Cuisine": "taco joint", "Hours": "late night"}, {"Amenity": "carryout", "Rating": "nice"}, {"Location": "nearby", "Amenity": "people"}, {"Dish": "gelato"}, {"Dish": "pasta"}, {}, {"Location": "within 5 minutes", "Price": "great"}, {"Restaurant_Name": "rainforest cafe"}, {"Location": "near me"}, {"Amenity": "good portions", "Hours": "open at 9 p"}, {"Amenity": "senior discount"}, {"Cuisine": "seafood", "Dish": "fresh fish"}, {"Location": "county", "Cuisine": "sports bar"}, {"Cuisine": "thai", "Amenity": "non smoking"}, {"Cuisine": "mexican", "Price": "great"}, {"Restaurant_Name": "bobby hacketts restaurant"}, {"Cuisine": "vegan", "Price": "cheap"}, {"Cuisine": "irish"}, {"Price": "price not so so high"}, {"Restaurant_Name": "naugles", "Dish": "naugles"}, {"Location": "beacon hill", "Hours": "open in the morning"}, {"Location": "in town", "Dish": "sushi", "Rating": "best"}, {"Location": "in town", "Dish": "burgers", "Price": "cheapest"}, {"Dish": "pizza", "Price": "cheapest"}, {"Cuisine": "chinese", "Amenity": "take out", "Price": "cheapest"}, {"Location": "closest", "Cuisine": "bakery"}, {"Cuisine": "breakfast", "Dish": "burrito", "Rating": "highest rated"}, {"Location": "in city hall plaza", "Amenity": "parking"}, {"Dish": "banana split"}, {"Dish": "burger"}, {"Price": "cheap"}, {"Location": "huntington ny", "Price": "cheap"}, {"Dish": "bagel", "Rating": "good"}, {"Location": "in manhattan", "Hours": "deal", "Price": "good"}, {"Rating": "good", "Price": "good"}, {"Dish": "tofu", "Rating": "great"}, {"Dish": "hamburger"}, {"Location": "between <UNK> falls and <UNK>", "Dish": "hamburger"}, {}, {"Location": "within walking distance", "Dish": "milkshake"}, {"Restaurant_Name": "pho king"}, {"Location": "kendall square", "Dish": "drink"}, {"Dish": "taco"}, {"Location": "<UNK> highway"}, {"Dish": "bagels"}, {"Location": "no farther miles", "Dish": "barbecue"}, {"Location": "not far from here", "Cuisine": "caribbean", "Amenity": "romantic setting"}, {"Location": "alston", "Hours": "5 pm", "Price": "cheap"}, {"Location": "glen cove ny", "Price": "inexpensive"}, {"Dish": "doughnuts", "Hours": "right now"}, {"Dish": "<UNK>"}, {"Dish": "fish"}, {"Amenity": "large portions"}, {"Location": "within 1 mile", "Dish": "nachos", "Hours": "open late"}, {"Dish": "sashimi", "Hours": "8 pm", "Price": "reasonably"}, {"Dish": "chicken nuggets"}, {"Dish": "cookies"}, {"Location": "nearby", "Dish": "crab", "Hours": "open until 2 am"}, {"Cuisine": "fast food"}, {"Dish": "coffee", "Rating": "good"}, {"Dish": "ice cream"}, {"Dish": "macaroni and cheese"}, {"Dish": "shrimp"}, {"Dish": "<UNK>"}, {"Cuisine": "southern"}, {"Dish": "spaghetti"}, {"Dish": "sushi"}, {"Dish": "waffles"}, {"Location": "near my current location", "Price": "inexpensive"}, {"Location": "around me", "Restaurant_Name": "starbucks"}, {"Dish": "pie", "Rating": "best"}, {"Location": "baltimore", "Dish": "hamburger", "Rating": "top rated"}, {"Cuisine": "vegan"}, {"Amenity": "carry out", "Dish": "gelato", "Price": "expensive"}, {}, {"Location": "around here", "Dish": "sandwich"}, {"Amenity": "not allow smoking", "Restaurant_Name": "jamaica plain plain also"}, {"Dish": "fried chicken"}, {"Location": "nearby", "Amenity": "date", "Dish": "enchiladas"}, {"Price": "excellent"}, {}, {"Location": "charlestown", "Price": "cheap"}, {"Dish": "tacos"}, {"Amenity": "kids"}, {"Amenity": "kids", "Dish": "omelet"}, {"Cuisine": "french"}, {"Location": "waterfront", "Dish": "sushi"}, {"Location": "10 minutes away", "Dish": "tomato sauce", "Price": "excellent"}, {"Hours": "open until 1 am"}, {"Dish": "burger"}, {"Dish": "roast beef", "Hours": "right now"}, {}, {"Cuisine": "seafood", "Amenity": "bring my own drinks"}, {"Location": "beverly can i kitchen", "Restaurant_Name": "little little kitchen"}, {"Location": "theater district"}, {"Location": "<UNK> drive", "Amenity": "moderate portions", "Restaurant_Name": "bob evans"}, {"Location": "north end", "Dish": "burritos", "Price": "cheap"}, {"Rating": "good"}, {"Cuisine": "seafood", "Rating": "good"}, {"Location": "water water", "Rating": "good"}, {"Cuisine": "pizza", "Amenity": "kid friendly , games"}, {"Cuisine": "kosher", "Hours": "lunch"}, {"Cuisine": "ethiopian", "Hours": "late night"}, {"Location": "downtown", "Cuisine": "japanese", "Price": "reasonably"}, {"Location": "near west bridgewater", "Amenity": "really friendly service", "Hours": "open till midnight"}, {"Hours": "opens 24 hours"}, {"Location": "near here", "Dish": "sub"}, {"Cuisine": "italian", "Amenity": "outdoor seating"}, {"Location": "along this route", "Amenity": "waterfront dining"}, {"Location": "charlotte", "Restaurant_Name": "charlotte nc"}, {"Restaurant_Name": "dominos"}, {"Restaurant_Name": "dominos pizza"}, {"Cuisine": "<UNK>"}, {"Restaurant_Name": "ii <UNK>"}, {"Restaurant_Name": "jack in the box"}, {"Restaurant_Name": "long john silvers"}, {"Restaurant_Name": "p f changs"}, {"Restaurant_Name": "pizza express"}, {"Location": "<UNK>", "Restaurant_Name": "<UNK> restaurant"}, {"Amenity": "outdoor dining", "Rating": "good"}, {}, {"Restaurant_Name": "station donuts"}, {"Restaurant_Name": "subway"}, {"Dish": "burgers , fries"}, {"Location": "in the area"}, {"Location": "in the city", "Cuisine": "italian", "Rating": "best"}, {"Cuisine": "korean", "Rating": "best"}, {"Cuisine": "mediterranean", "Rating": "best"}, {"Cuisine": "fast food", "Rating": "best"}, {"Location": "near beacon hill", "Dish": "burger", "Rating": "best"}, {"Location": "nearest", "Price": "cheapest"}, {"Location": "closest", "Rating": "5 star"}, {"Location": "closest", "Restaurant_Name": "apple bees"}, {"Location": "closest , my current location", "Restaurant_Name": "chillis"}, {"Location": "closest", "Amenity": "fine dining"}, {"Location": "closest"}, {"Location": "closest"}, {"Location": "closest", "Restaurant_Name": "<UNK> johns"}, {"Location": "closest", "Amenity": "non smoking"}, {"Location": "closest", "Restaurant_Name": "pizza hut"}, {"Location": "closest", "Dish": "potatoes", "Price": "cheap"}, {"Location": "closest", "Dish": "pizza"}, {"Location": "closest", "Restaurant_Name": "red robin"}, {"Location": "closest", "Cuisine": "chinese"}, {"Location": "closest", "Dish": "gyros"}, {"Location": "closest , zip zip code", "Cuisine": "sushi", "Amenity": "bars"}, {"Location": "closest", "Restaurant_Name": "tgi fridays"}, {"Location": "closest", "Restaurant_Name": "tim hortons"}, {"Location": "different locations", "Restaurant_Name": "taco bell"}, {"Location": "nearest", "Rating": "4 star"}, {"Location": "nearest", "Cuisine": "asia", "Amenity": "asia express"}, {"Location": "nearest", "Amenity": "dinning"}, {"Location": "nearest"}, {"Location": "nearest", "Cuisine": "burger"}, {"Location": "nearest", "Amenity": "casual"}, {"Location": "nearest", "Cuisine": "chinese", "Rating": "3 stars"}, {"Location": "nearest"}, {"Location": "nearest", "Cuisine": "ice cream"}, {"Location": "nearest", "Cuisine": "kosher"}, {"Location": "nearest", "Cuisine": "mexican", "Hours": "open late for dinner"}, {"Location": "nearest", "Restaurant_Name": "napoli pizzeria"}, {"Location": "nearest", "Dish": "smoothie"}, {"Location": "nearest", "Dish": "nachos"}, {"Location": "nearest", "Amenity": "dining patio"}, {"Location": "nearest", "Amenity": "game room room for kids"}, {"Location": "nearest", "Amenity": "indoor smoking"}, {"Location": "nearest", "Dish": "hush puppies"}, {"Location": "nearest", "Dish": "steak"}, {"Location": "nearest", "Amenity": "casual friendly"}, {"Location": "nearest"}, {"Location": "nearest", "Cuisine": "sushi"}, {"Location": "nearest", "Cuisine": "chinese", "Amenity": "take out"}, {"Location": "nearest", "Cuisine": "tapas"}, {"Location": "nearest", "Cuisine": "thai", "Hours": "breakfast"}, {"Location": "nearest", "Amenity": "patio seating", "Restaurant_Name": "<UNK> <UNK>"}, {"Location": "nearest", "Restaurant_Name": "uptown espresso"}, {"Location": "next mcdonald", "Restaurant_Name": "mcdonald"}, {"Location": "place , 2 miles from here", "Amenity": "byob"}, {"Location": "<UNK> ave"}, {"Location": "<UNK>", "Cuisine": "bar"}, {"Location": "around"}, {"Location": "near 4 th street", "Dish": "appetizers", "Price": "mid"}, {"Location": "near here", "Amenity": "buffet", "Rating": "great"}, {"Restaurant_Name": "wing stop"}, {"Cuisine": "great", "Rating": "great"}, {"Location": "within 1 mile"}, {"Location": "near central park", "Dish": "tacos", "Rating": "good"}, {"Location": "within an hour", "Cuisine": "diner", "Amenity": "kid friendly", "Hours": "within"}, {"Location": "closest", "Restaurant_Name": "mcdonalds"}, {"Restaurant_Name": "papa johns"}, {"Location": "in the area", "Cuisine": "korean", "Rating": "best"}, {"Location": "closes"}, {"Location": "closest", "Rating": "5 star"}, {"Location": "closest"}, {"Location": "closest"}, {"Location": "downtown", "Cuisine": "italian", "Hours": "open until midnight"}, {"Location": "local", "Restaurant_Name": "el <UNK>"}, {"Location": "local", "Dish": "soup , sandwich"}, {"Location": "nearest", "Cuisine": "french"}, {"Location": "nearest", "Cuisine": "italian"}, {"Location": "nearest , <UNK> <UNK> white", "Cuisine": "pizza"}, {"Location": "nearest"}, {"Location": "nearest", "Dish": "hamburger", "Rating": "3 star rating", "Price": "under five dollars"}, {"Location": "nearest", "Amenity": "childrens menu"}, {"Location": "<UNK>", "Restaurant_Name": "<UNK> inn"}, {"Cuisine": "authentic mexican", "Amenity": "complementary chips"}, {"Location": "<UNK> <UNK>", "Cuisine": "italian", "Rating": "five star"}, {"Location": "local", "Cuisine": "seafood"}, {"Location": "nearby", "Dish": "steak", "Rating": "best"}, {"Amenity": "kid friendly"}, {"Cuisine": "pizza", "Amenity": "deliver"}, {"Amenity": "large portions"}, {"Location": "within 5 minutes", "Amenity": "healthy portions"}, {"Rating": "better rating"}, {"Amenity": "smoking section"}, {"Dish": "fried pickles"}, {"Location": "in my city", "Rating": "highest reviews"}, {"Hours": "open late"}, {"Location": "in my city", "Cuisine": "vegetarian"}, {"Hours": "open after midnight"}, {"Location": "around my city", "Rating": "best <UNK>"}, {}, {"Location": "near here", "Hours": "open till midnight"}, {"Amenity": "outdoor dining"}, {"Dish": "fed fed beef steaks", "Price": "best"}, {"Location": "closest to detroit", "Restaurant_Name": "tim hortons"}, {"Amenity": "delivery", "Price": "reasonable"}, {"Location": "around here", "Dish": "burgers"}, {"Hours": "right now"}, {"Location": "in town", "Dish": "lobster", "Rating": "best"}, {"Amenity": "takes credit cards", "Rating": "best"}, {"Dish": "<UNK> of beers", "Rating": "best"}, {"Dish": "sausage", "Rating": "best"}, {"Location": "in town", "Dish": "burgers", "Rating": "best"}, {"Location": "in town", "Dish": "chicken wings", "Rating": "best"}, {"Cuisine": "cali"}, {"Location": "this town", "Dish": "wings", "Rating": "best"}, {"Location": "in town"}, {"Amenity": "romantic , my date tonight"}, {"Amenity": "<UNK> visa gift card"}, {"Location": "patchogue york", "Restaurant_Name": "mcdonalds"}, {"Location": "south street", "Cuisine": "diner"}, {"Cuisine": "chicken"}, {"Dish": "onion rings"}]