[{"Rating": "four star", "Location": "with a", "Amenity": "bar"}, {"Cuisine": "asian", "Location": "around"}, {"Cuisine": "bbq", "Hours": "open before 5", "Location": "nearby"}, {"Location": "dancing <UNK>", "Price": "reasonable"}, {"Price": "cheap", "Cuisine": "german", "Location": "nearby"}, {"Rating": "good", "Cuisine": "ice cream parlors", "Location": "around"}, {"Rating": "good", "Dish": "pie", "Price": "affordable"}, {"Cuisine": "vegan", "Location": "nearby"}, {"Cuisine": "mexican", "Dish": "<UNK>", "Amenity": "special today"}, {"Location": "along the road", "Rating": "good", "Dish": "beer , ribs"}, {"Location": "around here", "Amenity": "nice view"}, {"Price": "reasonably", "Cuisine": "indian", "Location": "in the theater district"}, {"Hours": "open right now"}, {"Amenity": "smoking"}, {"Location": "around", "Dish": "pasta", "Price": "prices are not too high"}, {"Location": "avenue"}, {"Hours": "open after midnight", "Price": "reasonable"}, {"Amenity": "children , sitting area"}, {"Restaurant_Name": "112 eatery"}, {"Restaurant_Name": "le <UNK> fin"}, {"Hours": "24 hour", "Cuisine": "breakfast", "Location": "nearby"}, {"Amenity": "50s style", "Cuisine": "diners", "Location": "<UNK>"}, {"Cuisine": "authentic mexican", "Location": "in the area"}, {"Cuisine": "bars , italian , french", "Location": "nearby"}, {"Cuisine": "brewpubs", "Location": "downtown"}, {"Cuisine": "<UNK>", "Location": "near"}, {"Location": "charlestown", "Hours": "open very early , lunch"}, {"Restaurant_Name": "chick fil as", "Location": "in the city", "Hours": "sunday"}, {"Dish": "chicken wing", "Location": "nearby"}, {"Amenity": "child friendly", "Location": "within ten miles"}, {"Cuisine": "chinese", "Location": "near <UNK>"}, {"Cuisine": "crab", "Hours": "open late until 2 a m"}, {"Amenity": "specials", "Restaurant_Name": "le <UNK> fin"}, {"Restaurant_Name": "donut and donuts", "Location": "within 5 minutes drive", "Amenity": "extensive beer menu"}, {"Location": "hotel downtown"}, {"Amenity": "<UNK>", "Location": "along the way", "Price": "reasonably"}, {"Amenity": "fancy", "Cuisine": "cambodian", "Location": "<UNK> street"}, {"Cuisine": "fast food", "Location": "east of here"}, {"Cuisine": "fast food", "Amenity": "kid friendly"}, {"Amenity": "fine dining", "Location": "within 5 miles"}, {"Rating": "five star", "Location": "around here"}, {"Rating": "four star", "Location": "town"}, {"Amenity": "fun", "Dish": "brisket", "Location": "in town"}, {"Amenity": "family style", "Location": "around boston"}, {"Rating": "good", "Cuisine": "soul", "Location": "near by"}, {"Cuisine": "greek", "Location": "in the area"}, {"Cuisine": "greek", "Location": "theater district , back bay"}, {"Cuisine": "hamburger", "Location": "close by"}, {"Hours": "1"}, {"Cuisine": "ice cream", "Location": "in my neighborhood", "Hours": "open right now"}, {"Cuisine": "indian", "Location": "long island"}, {"Cuisine": "italian", "Location": "nearby"}, {"Cuisine": "japanese", "Location": "in town", "Amenity": "discounts for <UNK> orders , sushi"}, {"Amenity": "jazz clubs"}, {"Amenity": "kid friendly", "Location": "close by"}, {"Amenity": "kid friendly , valet parking"}, {"Amenity": "locally owned , give money to <UNK>"}, {"Restaurant_Name": "<UNK> cafe", "Location": "in town"}, {"Restaurant_Name": "mcdonalds", "Location": "in 3 minutes"}, {"Price": "mid", "Location": "within 5 miles", "Amenity": "offer curb side <UNK>"}, {"Rating": "<UNK> known", "Location": "in this city"}, {"Amenity": "new", "Location": "nearby"}, {"Rating": "nice", "Cuisine": "taco", "Location": "nearby", "Hours": "open for breakfast"}, {"Location": "close", "Hours": "open 24 hours"}, {"Location": "around here", "Dish": "tomato sauce based dishes"}, {"Amenity": "allow smoking"}, {"Location": "near by", "Dish": "hamburgers , pizza"}, {"Location": "near by", "Hours": "lunch all day"}, {"Location": "in the area", "Amenity": "two for one special"}, {"Rating": "notable", "Amenity": "beer list", "Location": "white st"}, {"Price": "reasonably", "Location": "east <UNK> street", "Dish": "cheese"}, {"Location": "nearby", "Cuisine": "thai"}, {"Amenity": "smoking area"}, {"Dish": "sugar free desserts"}, {"Location": "nearby", "Rating": "great reviews", "Amenity": "plenty of parking"}, {"Location": "nearby", "Amenity": "outdoor dining"}, {"Location": "<UNK> street", "Amenity": "large portions , brewpub"}, {"Location": "way", "Dish": "hamburgers", "Hours": "open after 1 am"}, {"Location": "way to my destination", "Amenity": "fireplace inside"}, {"Location": "this side of the river"}, {"Hours": "open after 2 am"}, {"Hours": "24 hours"}, {"Cuisine": "raw and organic", "Location": "nearby"}, {"Amenity": "take my dog in with me"}, {"Amenity": "happy hour", "Location": "in the area"}, {"Amenity": "valet parking , <UNK> staff", "Location": "near here"}, {"Location": "within 5 miles", "Amenity": "accept travelers checks"}, {"Cuisine": "rib joints", "Location": "nearby"}, {"Cuisine": "seafood", "Location": "near government center , online reservations"}, {"Cuisine": "spanish", "Price": "cheap"}, {"Dish": "steak", "Location": "within 3 miles"}, {"Cuisine": "sub sandwich", "Dish": "beer"}, {"Cuisine": "sushi", "Location": "near colonel bell drive"}, {"Dish": "tapas", "Rating": "good reviews", "Location": "nearby"}, {"Cuisine": "turkish", "Location": "florida"}, {"Cuisine": "vegan spots", "Hours": "open after 11 at night"}, {"Cuisine": "vegetarian", "Location": "in this town"}, {"Cuisine": "vegetarian", "Amenity": "order online ahead of time"}, {"Cuisine": "vietnamese", "Location": "nearby"}, {"Restaurant_Name": "cracker <UNK>", "Location": "long island"}, {"Restaurant_Name": "bar la grassa", "Hours": "tomorrow at 7 pm"}, {"Amenity": "allow smoking"}, {"Cuisine": "asian", "Location": "in my zip code"}, {"Cuisine": "french", "Amenity": "dine outdoors"}, {"Dish": "beer , hot wings", "Location": "in town"}, {"Rating": "best", "Cuisine": "chinese", "Location": "in the area"}, {"Dish": "borscht"}, {"Restaurant_Name": "bradford lantern cafe"}, {"Cuisine": "<UNK>", "Location": "near me"}, {"Dish": "burgers"}, {"Cuisine": "cafes", "Location": "<UNK> street"}, {"Restaurant_Name": "<UNK>", "Location": "berkeley"}, {"Cuisine": "chinese"}, {"Restaurant_Name": "dominos"}, {"Location": "closest", "Cuisine": "korean"}, {"Amenity": "my kid , bars <UNK>", "Location": "down town"}, {"Amenity": "pet", "Cuisine": "japanese"}, {"Restaurant_Name": "<UNK> a <UNK> casa"}, {"Cuisine": "bar and grill", "Location": "short walking distance of the shopping district"}, {"Rating": "good", "Cuisine": "chinese", "Amenity": "buffet", "Location": "within 3 miles"}, {"Location": "close by", "Price": "meal under 8"}, {"Rating": "good", "Cuisine": "<UNK>"}, {"Amenity": "chefands table", "Location": "north <UNK> street", "Hours": "very late at night"}, {"Location": "close", "Cuisine": "fast food"}, {"Dish": "gluten free pizza", "Location": "within 10 miles of here"}, {"Dish": "<UNK>", "Restaurant_Name": "lone star"}, {"Cuisine": "raw vegan", "Location": "<UNK>"}, {"Dish": "sushi", "Amenity": "prix fixe menu", "Price": "reasonable"}, {"Restaurant_Name": "kfc", "Location": "los angeles ca"}, {"Dish": "hamburger", "Location": "nearby"}, {"Amenity": "valet park", "Restaurant_Name": "blue <UNK> grill"}, {"Amenity": "wear <UNK>"}, {"Amenity": "bar , reservations , happy hour", "Dish": "tapas"}, {"Cuisine": "burger joint", "Amenity": "smoking section"}, {"Price": "cheap", "Cuisine": "vietnamese"}, {"Cuisine": "fast food"}, {"Rating": "highly rated", "Restaurant_Name": "long john silvers", "Hours": "open this late"}, {"Cuisine": "middle eastern", "Price": "great"}, {"Cuisine": "pizza", "Amenity": "buffet", "Location": "within 15 miles"}, {"Cuisine": "pub", "Location": "downtown"}, {"Dish": "bean soup", "Hours": "morning", "Price": "isnt too expensive"}, {"Dish": "duck", "Price": "not cheap", "Location": "near"}, {"Price": "under 20 per dish"}, {"Cuisine": "seafood"}, {"Location": "downtown"}, {"Cuisine": "steak house", "Dish": "wine"}, {"Cuisine": "thai japanese fusion", "Location": "in town"}, {"Cuisine": "italian", "Location": "nearby"}, {"Cuisine": "italian", "Hours": "brunch , sunday"}, {"Cuisine": "italian", "Amenity": "casual <UNK>"}, {"Restaurant_Name": "east", "Location": "dedham", "Cuisine": "pizzeria"}, {"Cuisine": "latin american", "Location": "within a hotel along the way"}, {"Cuisine": "burmese", "Amenity": "parking spot"}, {"Restaurant_Name": "fredas", "Amenity": "not too busy"}, {"Rating": "good", "Dish": "chowder"}, {"Amenity": "kid friendly", "Cuisine": "seafood"}, {"Amenity": "kid friendly", "Cuisine": "sushi"}, {"Price": "moderately", "Cuisine": "italian"}, {"Rating": "nice", "Cuisine": "italian", "Amenity": "reservations"}, {"Price": "not cheap", "Hours": "lunch", "Dish": "<UNK>"}, {"Dish": "pizza"}, {"Cuisine": "pizzeria", "Amenity": "delivers", "Hours": "after midnight"}, {"Location": "nearby", "Hours": "after 12 pm", "Dish": "bean dishes"}, {"Dish": "french fries"}, {"Amenity": "bar in it"}, {"Price": "between 15 and 20 dollars"}, {"Cuisine": "thai", "Amenity": "<UNK>"}, {"Cuisine": "chinese", "Amenity": "smoking section"}, {"Restaurant_Name": "hotel dining", "Cuisine": "<UNK> food"}, {"Cuisine": "malaysian", "Hours": "late at night"}, {"Amenity": "take out", "Dish": "ribs"}, {"Restaurant_Name": "best little restaurant", "Amenity": "dancing , good looking atmosphere"}, {"Restaurant_Name": "starting gate restaurant", "Price": "huge"}, {"Location": "closest", "Restaurant_Name": "ihop"}, {"Location": "nearest", "Cuisine": "health food store , bar"}, {"Location": "waterfront", "Restaurant_Name": "albertos deli", "Hours": "open until 11 pm"}, {"Cuisine": "ice cream", "Location": "near <UNK> street"}, {"Cuisine": "chinese", "Location": "great neck ny"}, {"Dish": "pork", "Location": "chinatown"}, {"Restaurant_Name": "name", "Location": "green st"}, {"Location": "nearest", "Cuisine": "mexican", "Price": "affordable", "Rating": "good quality"}, {"Amenity": "fancy", "Rating": "5 star ratings"}, {"Price": "high end", "Amenity": "lunch"}, {"Cuisine": "korean", "Location": "close by"}, {"Price": "reasonably", "Location": "harvard", "Cuisine": "chinese", "Amenity": "byob"}, {"Amenity": "fast service", "Hours": "open before 11 am"}, {"Restaurant_Name": "tong villa", "Amenity": "small portions"}, {"Price": "inexpensive", "Location": "within a five mile radius"}, {"Hours": "lunch", "Price": "under 10"}, {"Rating": "4 star or higher", "Cuisine": "italian"}, {"Cuisine": "chinese", "Amenity": "buffet", "Price": "under 12", "Location": "within a five minute drive"}, {"Cuisine": "diner", "Amenity": "smoking section", "Location": "this area"}, {"Dish": "burgers", "Hours": "12 00 am"}, {"Hours": "brunch"}, {"Restaurant_Name": "pf changs", "Hours": "tonight"}, {"Amenity": "reservation , valet parking", "Price": "cheapest"}, {"Price": "most expensive", "Location": "within 15 miles"}, {"Location": "nearest", "Price": "upscale", "Cuisine": "steakhouse"}, {"Cuisine": "reservation , <UNK>", "Restaurant_Name": "thursday"}, {"Restaurant_Name": "<UNK> restaurant", "Hours": "tonight at 7 30"}, {"Dish": "pizza"}, {"Location": "nearest", "Cuisine": "chinese"}, {"Restaurant_Name": "olive garden", "Location": "in manhattan"}, {"Price": "most expensive"}, {"Cuisine": "pizza"}, {"Restaurant_Name": "<UNK> restaurant and <UNK>", "Location": "<UNK>"}, {"Cuisine": "italian", "Location": "north of <UNK> rd in <UNK>"}, {"Price": "affordable", "Cuisine": "burmese"}, {"Location": "closest", "Restaurant_Name": "taco bell"}, {"Location": "nearest", "Cuisine": "sushi"}, {"Location": "nearest", "Restaurant_Name": "wendys"}, {"Price": "cheap", "Cuisine": "vegetarian"}, {"Price": "upscale", "Location": "downtown", "Rating": "best reviewed"}, {"Price": "cheap", "Location": "close to home"}, {"Cuisine": "chinese", "Rating": "good"}, {"Location": "closest", "Cuisine": "sushi", "Amenity": "bar"}, {"Dish": "cocktails", "Amenity": "dancing"}, {"Amenity": "plays live music"}, {"Hours": "open every day"}, {"Location": "along the way to the airport", "Hours": "open late"}, {"Hours": "lunch"}, {"Cuisine": "italian", "Location": "four miles away", "Dish": "<UNK> pasta"}, {"Location": "closest", "Cuisine": "seafood"}, {"Rating": "nice", "Cuisine": "italian"}, {"Location": "closest", "Cuisine": "chinese"}, {"Restaurant_Name": "<UNK> cooks", "Amenity": "home made", "Hours": "dinners"}, {"Cuisine": "diner"}, {"Cuisine": "diner"}, {"Cuisine": "dining", "Amenity": "along the", "Restaurant_Name": "waterfront", "Location": "<UNK> street"}, {"Cuisine": "donut"}, {"Location": "nearest", "Cuisine": "indian"}, {"Location": "direct me , nearest", "Restaurant_Name": "mcdonalds"}, {"Amenity": "famous people", "Restaurant_Name": "jimmys pizza", "Location": "close by"}, {"Cuisine": "fast food", "Amenity": "out of town checks"}, {"Cuisine": "asian , organic meats and vegetables"}, {"Cuisine": "authentic italian", "Amenity": "sell bottles of <UNK> extra <UNK> olive oil"}, {"Cuisine": "chinese", "Location": "in town", "Amenity": "take out after midnight"}, {"Amenity": "family", "Location": "down town", "Dish": "<UNK> milk"}, {"Cuisine": "italian", "Location": "around here", "Amenity": "all you can eat buffet"}, {"Cuisine": "middle eastern", "Hours": "close by 7 pm"}, {"Amenity": "dance floor , live music"}, {"Location": "nearby", "Amenity": "gluten free options"}, {"Dish": "<UNK> of <UNK>"}, {"Cuisine": "fast food", "Amenity": "accept checks", "Location": "baltimore"}, {"Amenity": "reservation", "Restaurant_Name": "kings"}, {"Location": "place around here", "Amenity": "take clients"}, {"Amenity": "smoking area"}, {"Location": "in the mall"}, {"Rating": "good"}, {"Rating": "great", "Dish": "tacos"}, {}, {"Amenity": "reservation", "Restaurant_Name": "<UNK> cafe"}, {"Rating": "good", "Dish": "pizza", "Hours": "open until midnight"}, {"Restaurant_Name": "<UNK>", "Amenity": "dress code"}, {"Amenity": "fine dining", "Location": "in the theater district"}, {"Restaurant_Name": "<UNK>", "Hours": "breakfast"}, {"Cuisine": "burrito", "Hours": "open this late"}, {"Restaurant_Name": "<UNK> <UNK> burrito and <UNK> bar", "Location": "<UNK> <UNK>", "Amenity": "byob"}, {"Rating": "excellent", "Cuisine": "wine bar", "Location": "close by"}, {"Amenity": "fine dining , fireplace", "Cuisine": "cajun", "Location": "within one mile"}, {"Cuisine": "irish", "Location": "not too far away"}, {"Price": "reasonably", "Cuisine": "cajun", "Hours": "open at 11 am"}, {"Location": "in the mall"}, {"Restaurant_Name": "<UNK>"}, {"Cuisine": "bakery", "Hours": "still open"}, {"Location": "<UNK> street", "Rating": "getting all the <UNK>"}, {"Amenity": "catering"}, {"Rating": "good reviews"}, {"Dish": "fresh sushi"}, {"Amenity": "wine bar"}, {"Dish": "hummus"}, {"Restaurant_Name": "noodle bar", "Hours": "open"}, {"Restaurant_Name": "tin <UNK>", "Amenity": "<UNK> service"}, {"Restaurant_Name": "<UNK>", "Amenity": "dress code"}, {"Dish": "corned beef and cabbage", "Hours": "st <UNK> day"}, {"Location": "in town", "Amenity": "deliver", "Rating": "tasty", "Dish": "vegan pizza"}, {"Restaurant_Name": "bellinis", "Amenity": "outdoor parking"}, {"Restaurant_Name": "buffalo wild wings", "Amenity": "takeout"}, {"Restaurant_Name": "burger king", "Amenity": "accept credit cards"}, {"Restaurant_Name": "<UNK>", "Amenity": "smoking area"}, {"Restaurant_Name": "chuck e cheeses", "Amenity": "drive thru"}, {"Restaurant_Name": "dennys", "Amenity": "kids menu"}, {"Restaurant_Name": "<UNK> breakfast restuarant", "Amenity": "outdoor seating"}, {"Restaurant_Name": "<UNK>", "Amenity": "take out"}, {"Restaurant_Name": "granit grill", "Location": "703 fx", "Price": "cheap", "Hours": "breakfast"}, {"Restaurant_Name": "<UNK>", "Amenity": "bar"}, {"Restaurant_Name": "<UNK> bakery", "Amenity": "great decor"}, {"Restaurant_Name": "<UNK> steakhouse", "Amenity": "formal attire"}, {"Restaurant_Name": "logans", "Dish": "hamburgers"}, {"Restaurant_Name": "mcdonalds", "Dish": "ice cream during", "Hours": "breakfast hours"}, {"Restaurant_Name": "<UNK>", "Amenity": "takeout"}, {"Restaurant_Name": "mikes cafe", "Amenity": "smoking section"}, {"Restaurant_Name": "mikes country kitchen"}, {"Restaurant_Name": "mister foos", "Amenity": "reservations"}, {"Restaurant_Name": "mortons", "Amenity": "dress code"}, {"Restaurant_Name": "olive garden", "Dish": "wine"}, {"Restaurant_Name": "<UNK> sushi express", "Amenity": "great portions"}, {"Restaurant_Name": "<UNK>", "Dish": "white wine"}, {"Restaurant_Name": "pedros", "Cuisine": "mexican", "Amenity": "accept credit cards"}, {"Restaurant_Name": "pizza hut"}, {"Restaurant_Name": "quang", "Amenity": "credit cards"}, {"Restaurant_Name": "ricatonis", "Amenity": "lunch portion option"}, {"Restaurant_Name": "ruby tuesday", "Location": "<UNK> avenue", "Amenity": "salad bar"}, {"Restaurant_Name": "<UNK>"}, {"Restaurant_Name": "<UNK>", "Location": "newbury", "Amenity": "brunch menu"}, {"Amenity": "parking spot , date", "Rating": "good", "Location": "<UNK>"}, {"Restaurant_Name": "texas roadhouse", "Hours": "open for lunch every day"}, {"Restaurant_Name": "tgi fridays", "Amenity": "senior discounts"}, {"Restaurant_Name": "<UNK> diner", "Location": "<UNK> drive", "Amenity": "fixed price menus"}, {"Cuisine": "asian", "Location": "downtown", "Amenity": "parking"}, {"Restaurant_Name": "caranova", "Location": "kendall square", "Amenity": "fixed price menu"}, {"Cuisine": "chinese buffet", "Location": "6 th avenue", "Amenity": "smoking section"}, {"Restaurant_Name": "eastside grill", "Amenity": "dress code"}, {"Restaurant_Name": "<UNK> <UNK> bagels", "Amenity": "fine dining", "Location": "close"}, {"Cuisine": "italian", "Location": "in the town center", "Amenity": "carry out"}, {"Cuisine": "italian", "Location": "5 th street", "Amenity": "dress code"}, {"Restaurant_Name": "<UNK> bakery", "Location": "along the road", "Amenity": "waterfront dining"}, {"Restaurant_Name": "kostas pizza and seafood restaurant", "Price": "<UNK>"}, {"Restaurant_Name": "<UNK> japanese restaurant", "Location": "theater district", "Amenity": "deliver"}, {"Restaurant_Name": "mcdonalds", "Location": "7 th avenue", "Amenity": "free parking"}, {"Location": "nearest", "Cuisine": "asian", "Amenity": "kids menu"}, {"Location": "nearest", "Restaurant_Name": "<UNK> <UNK>", "Amenity": "room service"}, {"Restaurant_Name": "pho 2000", "Location": "state park rd", "Amenity": "online reservation"}, {"Restaurant_Name": "pizza shop", "Location": "florida", "Amenity": "outdoor parking"}, {"Location": "holbrook", "Dish": "egg rolls"}, {"Restaurant_Name": "<UNK> <UNK> restaurant", "Amenity": "museum or gift shop"}, {"Cuisine": "chinese", "Amenity": "private rooms"}, {"Amenity": "family friendly atmosphere"}, {"Restaurant_Name": "dominos pizza", "Location": "near my location"}, {"Restaurant_Name": "<UNK> boys burgers", "Location": "town"}, {"Cuisine": "fast food", "Location": "in the area"}, {"Restaurant_Name": "<UNK> <UNK> grill"}, {"Cuisine": "brewpub", "Price": "entrees under fifteen dollars"}, {"Amenity": "carry out", "Cuisine": "chinese"}, {"Price": "cheap", "Cuisine": "brewpub", "Dish": "beef"}, {"Cuisine": "chinese", "Amenity": "delivers"}, {"Cuisine": "chinese", "Amenity": "will take american express"}, {"Cuisine": "chinese", "Amenity": "large buffet"}, {"Amenity": "classy", "Price": "expensive", "Rating": "excellent reviews"}, {"Amenity": "clean", "Price": "reasonable"}, {"Restaurant_Name": "<UNK> <UNK> italian market", "Location": "within 10 miles , here"}, {"Amenity": "fine dining", "Location": "within 6 miles"}, {"Rating": "high end", "Dish": "pancakes"}, {"Location": "local", "Cuisine": "fruit stand"}, {"Cuisine": "mexican", "Rating": "very good rating"}, {"Restaurant_Name": "<UNK> donuts", "Amenity": "non <UNK>"}, {"Amenity": "drive thru"}, {"Amenity": "live music , happy hour specials"}, {"Price": "reasonably", "Location": "highwood drive", "Restaurant_Name": "oriental kitchen"}, {"Cuisine": "thai", "Location": "within 2 miles"}, {"Restaurant_Name": "<UNK> <UNK>", "Amenity": "take out , special occasion"}, {"Restaurant_Name": "in and out burger"}, {"Price": "inexpensive", "Cuisine": "mexican", "Location": "in the area"}, {"Cuisine": "italian", "Amenity": "family style"}, {"Cuisine": "italian", "Location": "atlanta <UNK>"}, {"Cuisine": "italian", "Location": "within 10 miles"}, {"Rating": "3 star rated", "Dish": "burger restaurant", "Location": "within 10 miles"}, {"Amenity": "causal", "Cuisine": "bar and grill"}, {"Price": "cheap", "Cuisine": "brazilian"}, {"Price": "cheap", "Amenity": "no smoking area"}, {"Price": "cheaply", "Cuisine": "thai"}, {"Cuisine": "chinese", "Location": "nearby"}, {"Cuisine": "chinese", "Amenity": "take out"}, {"Location": "close by", "Cuisine": "meat", "Dish": "produce"}, {"Location": "close by", "Cuisine": "sub"}, {"Location": "close"}, {"Cuisine": "deli", "Amenity": "eat in area"}, {"Dish": "dim sum restaurant", "Hours": "open at 8 am"}, {"Amenity": "fancy"}, {"Cuisine": "fast food"}, {"Cuisine": "german", "Location": "within 10 miles"}, {"Cuisine": "buffet", "Location": "near stockton ca"}, {"Rating": "good", "Dish": "burrito truck", "Location": "in the <UNK>"}, {"Rating": "good", "Cuisine": "deli", "Location": "manhattan"}, {"Rating": "good", "Cuisine": "pho", "Location": "portland or"}, {"Rating": "good", "Cuisine": "pub", "Amenity": "dance floor"}, {"Rating": "good", "Cuisine": "vegetarian"}, {"Restaurant_Name": "jack in the box", "Hours": "open"}, {"Amenity": "kid friendly", "Location": "within three miles"}, {"Location": "local", "Amenity": "outdoors shop , sells fire <UNK>"}, {"Location": "local", "Cuisine": "turkish"}, {"Restaurant_Name": "<UNK> salon", "Amenity": "<UNK>"}, {"Cuisine": "pizza parlour"}, {"Cuisine": "pizza", "Amenity": "credit cards"}, {"Dish": "burgers", "Location": "closest to me"}, {"Cuisine": "chinese", "Amenity": "takeout"}, {"Location": "near by"}, {"Rating": "excellent", "Dish": "sushi"}, {"Dish": "pizza", "Location": "nearby"}, {"Rating": "popular", "Location": "local", "Cuisine": "coffee"}, {"Cuisine": "ranch style barbecue", "Hours": "serves lunch at 3 pm", "Location": "about one mile"}, {"Amenity": "good for a date"}, {"Location": "near a movie theater", "Hours": "open at 6 pm on saturday"}, {"Location": "near the stadium"}, {"Amenity": "smoking area", "Dish": "alcohol", "Location": "withing 20 miles"}, {"Amenity": "quick", "Price": "cheap"}, {"Cuisine": "hawaiian"}, {"Dish": "burgers", "Amenity": "large portions , business dining"}, {"Amenity": "truck parking", "Rating": "good ratings"}, {"Amenity": "valet access"}, {"Location": "within 5 miles of here", "Hours": "open at 1 am"}, {"Restaurant_Name": "<UNK> barbeque"}, {"Amenity": "romantic", "Location": "restaurant in 7 hills"}, {"Amenity": "romantic , open table"}, {"Amenity": "sitdown , buy one get one free offer"}, {"Cuisine": "southwestern", "Hours": "breakfast", "Location": "located nearby"}, {"Cuisine": "spanish", "Amenity": "can smoke"}, {"Cuisine": "sports bar", "Amenity": "serves food"}, {"Dish": "apple", "Location": "within fifty miles"}, {"Restaurant_Name": "sudbury pizza", "Location": "no more than 10 minutes from here"}, {"Amenity": "take out", "Cuisine": "chinese"}, {"Amenity": "take out", "Dish": "fried chicken", "Location": "less than 2 miles from here"}, {"Restaurant_Name": "tgi fridays", "Location": "near me"}, {"Cuisine": "thai", "Rating": "great rating"}, {"Cuisine": "vegan", "Location": "not more than 5 miles away"}, {"Price": "well", "Cuisine": "cuban"}, {"Location": "local", "Cuisine": "italian joints"}, {"Cuisine": "ethiopian", "Amenity": "good service"}, {"Cuisine": "ethiopian", "Location": "within 5 miles"}, {"Price": "expensive", "Cuisine": "american"}, {"Cuisine": "indian", "Dish": "lamb"}, {"Cuisine": "italian", "Rating": "high ratings for its service"}, {"Cuisine": "brazilian", "Amenity": "on location parking"}, {"Dish": "chicken", "Amenity": "accept discover card"}, {"Cuisine": "chinese"}, {"Cuisine": "fast food", "Dish": "salad"}, {"Cuisine": "italian", "Dish": "cheesecake"}, {"Price": "isnt cheap", "Dish": "chocolate cake", "Amenity": "byob"}, {"Location": "lexington ky , <UNK> ohio"}, {"Cuisine": "soul", "Location": "los angeles"}, {"Rating": "best rated", "Cuisine": "chinese", "Location": "<UNK> <UNK>"}, {"Location": "closest", "Cuisine": "<UNK>"}, {"Location": "closest", "Restaurant_Name": "ihop"}, {"Location": "closest", "Restaurant_Name": "sonic", "Amenity": "drive thru"}, {"Location": "closest", "Restaurant_Name": "walmart"}, {"Location": "nearest", "Amenity": "<UNK> bank"}, {"Location": "nearest", "Restaurant_Name": "mcdonalds"}, {"Location": "nearest"}, {"Restaurant_Name": "dominos pizza"}, {"Location": "closest", "Cuisine": "afghan"}, {"Location": "someplace", "Dish": "smoothie"}, {"Location": "nearby", "Amenity": "coupons"}, {"Restaurant_Name": "chipotle mexican grill", "Location": "12 th and pine"}, {"Cuisine": "pizza"}, {"Rating": "ratings", "Location": "local", "Cuisine": "italian"}, {"Cuisine": "italian"}, {"Location": "within 5 miles", "Price": "entrees under 15"}, {"Hours": "open before 7 am", "Price": "average", "Location": "along the route"}, {"Cuisine": "thai"}, {"Location": "closest", "Cuisine": "brewpub"}, {"Location": "closest", "Restaurant_Name": "dunkin donuts"}, {"Location": "closest <UNK> <UNK>", "Amenity": "happy hour"}, {"Location": "closest", "Cuisine": "sea food"}, {"Location": "nearest", "Cuisine": "chicken stand"}, {"Location": "nearest", "Cuisine": "irish"}, {"Rating": "best", "Cuisine": "barbecue", "Location": "in town"}, {"Cuisine": "deli", "Location": "near central park"}, {"Cuisine": "sushi bar", "Location": "near brooklyn heights"}, {"Cuisine": "sushi", "Amenity": "bar", "Location": "near <UNK>"}, {"Restaurant_Name": "china wok"}, {"Rating": "good", "Cuisine": "pho"}, {"Cuisine": "mexican"}, {"Rating": "best , highest rating", "Cuisine": "italian"}, {"Cuisine": "seafood"}, {"Amenity": "<UNK>"}, {"Restaurant_Name": "mcdonalds"}, {"Restaurant_Name": "arbys"}, {"Restaurant_Name": "<UNK> grill"}, {"Location": "closest", "Dish": "sushi"}, {"Hours": "hours", "Location": "closest", "Cuisine": "waffle house"}, {"Location": "locations , in town", "Cuisine": "buffets"}, {"Location": "closest", "Cuisine": "pizza parlors"}, {"Restaurant_Name": "shake shack"}, {"Dish": "<UNK>", "Location": "<UNK>"}, {"Restaurant_Name": "hard rock hotel", "Location": "near me"}, {"Restaurant_Name": "sushi stop"}, {"Cuisine": "steakhouse", "Amenity": "reservations childrens menu", "Rating": "at least 3 stars"}, {"Cuisine": "burger joint"}, {"Rating": "five star", "Cuisine": "chinese buffet", "Location": "within ten minutes"}, {"Rating": "good"}, {"Hours": "open until 11 pm"}, {"Cuisine": "fast food"}, {"Amenity": "kids would like to eat"}, {"Cuisine": "sports bar", "Amenity": "smoke friendly"}, {"Restaurant_Name": "jack in the box", "Location": "beverly hills"}, {"Rating": "best", "Dish": "meatballs", "Location": "in town"}, {"Rating": "great", "Amenity": "date night"}, {"Restaurant_Name": "variety food court"}, {"Restaurant_Name": "taco bell", "Location": "nearby"}, {"Location": "around here", "Rating": "good"}, {"Cuisine": "thai", "Location": "nearby"}, {"Cuisine": "sushi", "Rating": "good reviews", "Price": "isnt too expensive"}, {"Price": "cheap", "Cuisine": "vegan"}, {"Restaurant_Name": "<UNK>"}, {"Restaurant_Name": "<UNK>"}, {"Restaurant_Name": "anthonys cafe", "Location": "waterfront"}, {"Location": "nearst", "Restaurant_Name": "long john silvers"}, {"Location": "closest", "Cuisine": "mexican"}, {"Location": "nearest", "Restaurant_Name": "olive garden"}, {"Location": "<UNK> <UNK>", "Restaurant_Name": "izakaya gazen"}, {"Restaurant_Name": "burger king", "Location": "oak street"}, {"Location": "cloest", "Restaurant_Name": "port of subs"}, {"Location": "nearest", "Restaurant_Name": "hooters"}, {"Location": "nearest", "Restaurant_Name": "taco bell"}, {"Restaurant_Name": "als diner", "Location": "from here"}, {"Price": "expensive", "Restaurant_Name": "olive garden"}, {"Restaurant_Name": "chinese express"}, {"Location": "nearest", "Cuisine": "bagel"}, {"Restaurant_Name": "<UNK> thai"}, {"Cuisine": "chicago style sub joint"}, {"Location": "closest", "Restaurant_Name": "burger king"}, {"Location": "nearest", "Restaurant_Name": "applebees"}, {"Location": "nearest", "Cuisine": "steak house"}, {"Cuisine": "burger"}, {"Restaurant_Name": "<UNK> <UNK>", "Location": "<UNK>"}, {"Restaurant_Name": "arbys"}, {"Amenity": "english pub", "Dish": "fry up"}, {"Location": "nearest", "Restaurant_Name": "<UNK>"}, {"Location": "nearest", "Restaurant_Name": "olive garden"}, {"Restaurant_Name": "taco bell"}, {"Cuisine": "fast food"}, {"Location": "next", "Restaurant_Name": "subway"}, {"Restaurant_Name": "mcdonalds"}, {"Restaurant_Name": "<UNK>", "Location": "<UNK> road", "Hours": "will be open"}, {"Location": "<UNK> , <UNK>", "Restaurant_Name": "three chimneys"}, {"Hours": "long", "Restaurant_Name": "band box diner"}, {"Restaurant_Name": "burger kings", "Location": "around"}, {"Restaurant_Name": "burger kings", "Location": "nearby"}, {"Cuisine": "chinese"}, {"Restaurant_Name": "<UNK>"}, {"Dish": "pizza", "Location": "nearby"}, {"Dish": "pizza"}, {"Location": "near me", "Amenity": "have bathrooms"}, {"Amenity": "accept reservations", "Location": "within 10 miles"}, {"Restaurant_Name": "olive garden"}, {"Restaurant_Name": "<UNK> diner"}, {"Dish": "fries", "Restaurant_Name": "jack in the box"}, {"Restaurant_Name": "subway", "Hours": "open"}, {"Restaurant_Name": "francoiss"}, {"Restaurant_Name": "<UNK> bar and <UNK>"}, {"Cuisine": "health", "Location": "in the area"}, {"Location": "local", "Dish": "coffee"}, {"Location": "nearby"}, {"Dish": "shrimp", "Location": "closet"}, {"Cuisine": "chinese"}, {"Restaurant_Name": "dennys", "Location": "5 miles from here"}, {"Rating": "good"}, {"Location": "local", "Dish": "pizza", "Amenity": "delivers"}, {"Cuisine": "mediterranean", "Amenity": "delivers"}, {"Cuisine": "mexican", "Amenity": "mariachi band"}, {"Rating": "nice", "Location": "within 30 miles", "Amenity": "accepts credit cards"}, {"Amenity": "allows smoking"}, {"Cuisine": "english", "Price": "cheap to moderate"}, {"Restaurant_Name": "olive garden", "Location": "close by"}, {"Hours": "lunch", "Amenity": "buffets", "Location": "within 15 minutes driving distance"}, {"Dish": "<UNK>"}, {"Cuisine": "chinese"}, {"Rating": "best", "Amenity": "large buffet", "Location": "within 15 miles"}, {"Cuisine": "spicy"}, {"Rating": "<UNK>", "Dish": "barbeque"}, {"Amenity": "<UNK> smoke , relax"}, {"Restaurant_Name": "sweet tomatoes", "Location": "nearest"}, {"Cuisine": "fish , chips", "Price": "cheap"}, {"Hours": "dinner , at 5", "Amenity": "date"}, {"Rating": "good", "Cuisine": "appetizer"}, {"Amenity": "business , caters to <UNK>", "Hours": "<UNK>"}, {"Location": "within 1 mile from here"}, {"Location": "closest", "Cuisine": "diner", "Price": "cheap", "Hours": "breakfast"}, {"Cuisine": "fast food", "Amenity": "carry out"}, {"Rating": "4 star rated", "Restaurant_Name": "subway", "Location": "nearby"}, {"Rating": "5 star", "Cuisine": "sushi bar", "Location": "close by"}, {"Price": "cheap", "Hours": "brunch"}, {"Location": "close", "Hours": "open currently"}, {"Cuisine": "deli", "Amenity": "caters"}, {"Amenity": "family friendly", "Hours": "tonight"}, {"Amenity": "kid friendly", "Hours": "lunch"}, {"Amenity": "kid friendly", "Cuisine": "sushi"}, {"Cuisine": "korean barbecue"}, {"Hours": "late night", "Rating": "good service"}, {"Amenity": "diners card", "Location": "5 mile radius"}, {"Cuisine": "middle eastern", "Rating": "friendly service"}, {"Amenity": "kids", "Hours": "12 pm"}, {"Amenity": "smoking"}, {"Dish": "enchiladas", "Hours": "open every day"}, {"Amenity": "quick"}, {"Hours": "6 pm", "Location": "nearest", "Cuisine": "asian"}, {"Location": "nearest", "Cuisine": "steakhouse"}, {"Amenity": "lots of parking , large portions", "Restaurant_Name": "nations restaurant <UNK>"}, {"Cuisine": "thai", "Location": "nearby"}, {"Hours": "two pm", "Restaurant_Name": "hooters"}, {"Price": "expensive", "Location": "within 5 miles"}, {"Price": "inexpensive", "Cuisine": "italian", "Amenity": "big portions"}, {"Cuisine": "italian", "Amenity": "kids menu"}, {"Price": "unbelievably", "Location": "kingsdale st", "Amenity": "bar atmosphere"}, {"Restaurant_Name": "luigis pizza"}, {"Location": "closest", "Dish": "pancake"}, {"Location": "nearest", "Cuisine": "ethiopian"}, {"Amenity": "delivered", "Location": "near downtown"}, {"Amenity": "gluten free options"}, {"Cuisine": "soul"}, {"Restaurant_Name": "wendys", "Hours": "opening hours"}, {"Amenity": "carry out", "Cuisine": "pizza", "Location": "within 2 miles"}, {"Location": "nearest", "Cuisine": "sushi bar"}, {"Dish": "potato fries", "Location": "beacon hill", "Amenity": "quick service"}, {"Cuisine": "hot", "Location": "way to work"}, {"Price": "decently"}, {"Location": "closest", "Restaurant_Name": "chic fil a", "Dish": "<UNK> shake"}, {"Restaurant_Name": "<UNK>", "Location": "gulf shores"}, {"Amenity": "business", "Price": "right"}, {"Restaurant_Name": "galvins harp and bard", "Location": "near here"}, {"Hours": "open every day"}, {"Location": "government center", "Rating": "good service", "Price": "decent"}, {"Cuisine": "breakfast", "Hours": "5 30 am"}, {"Cuisine": "seafood", "Location": "close"}, {"Dish": "bread"}, {"Cuisine": "mexican", "Location": "nearby"}, {"Dish": "sushi"}, {"Rating": "5 star", "Amenity": "carry out"}, {"Dish": "beer", "Restaurant_Name": "cambridge <UNK> company"}, {"Amenity": "buffet"}, {"Rating": "good", "Dish": "milkshake", "Location": "nearby"}, {"Dish": "milkshake"}, {"Cuisine": "greek", "Dish": "sandwich with <UNK> cheese"}, {"Cuisine": "chinese", "Amenity": "buffets", "Location": "within 5 miles of here"}, {"Dish": "pad thai", "Location": "around here", "Hours": "open all day"}, {"Amenity": "allows smoking , serves", "Cuisine": "health"}, {"Location": "near the <UNK>", "Amenity": "allows smoking"}, {"Location": "smith st", "Dish": "toast"}, {"Hours": "open after 9 pm", "Amenity": "<UNK> , nice service"}, {"Amenity": "carry out", "Dish": "potato soup"}, {"Dish": "taco", "Cuisine": "taco truck"}, {"Amenity": "upscale , valet parking", "Cuisine": "steakhouse"}, {"Restaurant_Name": "mcdonalds"}, {"Cuisine": "mexican", "Price": "cheap", "Location": "closest"}, {"Dish": "pizza"}, {"Dish": "pizza , pizza", "Rating": "best", "Amenity": "kid friendly , carry out"}, {"Amenity": "pet friendly"}, {"Dish": "chips and <UNK>"}, {"Restaurant_Name": "taco bell"}, {"Cuisine": "<UNK>"}, {"Location": "close by"}, {"Cuisine": "not fast food"}, {"Dish": "tacos"}, {"Amenity": "take out", "Cuisine": "mexican"}, {"Dish": "spiciest buffalo wings", "Location": "in town"}, {"Amenity": "very classy"}, {"Amenity": "fast food", "Cuisine": "italian"}, {"Dish": "hamburgers"}, {"Rating": "best rated", "Location": "in the area"}, {"Cuisine": "mexican"}, {"Dish": "pasta"}, {"Dish": "sushi"}, {"Dish": "burger", "Rating": "isnt fast food"}, {"Cuisine": "german", "Location": "lower east side", "Hours": "brunch , saturday and or sunday"}, {"Cuisine": "kosher deli", "Dish": "<UNK> , brisket sandwiches"}, {"Location": "nearby", "Cuisine": "coffee", "Rating": "highest customer ratings"}, {"Amenity": "new", "Location": "in my area"}, {"Dish": "beef patties"}, {"Dish": "pizza by the slice"}, {"Amenity": "very clean , good service"}, {"Dish": "spaghetti and meatballs"}, {"Amenity": "diet friendly"}, {"Amenity": "outdoor dining section , permits smoking"}, {"Cuisine": "italian"}, {"Cuisine": "pancake", "Amenity": "nonsmoking"}, {"Rating": "best michelin rated", "Cuisine": "french"}, {"Restaurant_Name": "chez yogis", "Location": "in <UNK> city"}, {"Cuisine": "chinese"}, {"Cuisine": "coffee", "Hours": "breakfast after 11 am"}, {"Location": "as fast as possible"}, {"Amenity": "dancing", "Location": "nearby", "Dish": "<UNK>"}, {"Price": "nicely", "Location": "within 10 minutes", "Rating": "good", "Dish": "tomato sauce"}, {"Rating": "high <UNK> rating", "Price": "average plate cost , less than 20", "Location": "nearby"}, {"Cuisine": "indian", "Location": "downtown"}, {"Restaurant_Name": "taco bell , taco <UNK>"}, {"Hours": "lunch", "Location": "downtown la"}, {"Dish": "tacos"}, {"Amenity": "reservation", "Cuisine": "indian"}, {"Amenity": "catering"}, {"Restaurant_Name": "<UNK> grill", "Hours": "friday night"}, {"Dish": "<UNK> fish", "Rating": "good"}, {"Cuisine": "exotic"}, {"Cuisine": "new , dinner", "Hours": "tonight"}, {"Price": "expensive", "Dish": "dumplings"}, {"Cuisine": "steakhouse", "Amenity": "outdoor dining", "Location": "within 10 miles"}, {"Amenity": "smoke free", "Location": "near my house"}, {"Location": "nearby", "Cuisine": "food trucks"}, {"Dish": "dim sum", "Location": "less than 5 miles away"}, {"Hours": "closed", "Location": "in the area"}, {"Dish": "fish", "Hours": "today"}, {"Dish": "pizza", "Amenity": "outdoor seating"}, {"Dish": "tofu", "Hours": "at 12 pm", "Price": "reasonable"}, {"Cuisine": "french", "Rating": "rated at least 4 stars"}, {"Cuisine": "mexican", "Location": "nearby"}, {"Cuisine": "soul"}, {"Cuisine": "vegan"}, {"Cuisine": "vegeterian"}, {"Amenity": "sushi"}, {"Cuisine": "chinese"}, {"Rating": "best"}, {"Restaurant_Name": "wendys"}, {"Cuisine": "breakfast"}, {"Cuisine": "ice cream", "Amenity": "20 flavors or more", "Location": "near here"}, {"Cuisine": "coffee", "Dish": "pie"}, {"Cuisine": "<UNK> food", "Dish": "farm vegetables"}, {"Cuisine": "lunch", "Price": "for the right"}, {"Price": "reasonably", "Amenity": "not part of chain", "Cuisine": "american"}, {"Cuisine": "halal", "Amenity": "bar"}, {"Cuisine": "breakfast"}, {"Price": "cheap", "Cuisine": "pub", "Amenity": "internet access"}, {"Cuisine": "chinese", "Location": "nearby"}, {"Cuisine": "diner", "Dish": "<UNK> cheese and soup", "Location": "close to here"}, {"Location": "off the beaten <UNK>", "Cuisine": "middle eastern"}, {"Location": "closest", "Restaurant_Name": "starbucks", "Hours": "past 9 pm"}, {"Cuisine": "thai", "Amenity": "carryout"}, {"Restaurant_Name": "<UNK> bakery", "Location": "in chinatown"}, {"Cuisine": "organic vegetables and fruits", "Rating": "best"}, {"Dish": "<UNK> baked potatoes", "Location": "ten mile radius"}, {"Amenity": "<UNK> and fun", "Hours": "breakfast"}, {"Cuisine": "chinese"}, {"Rating": "tasty", "Dish": "burger"}, {"Amenity": "large portions"}, {"Dish": "steak", "Rating": "good", "Location": "around"}, {"Cuisine": "thai"}, {"Dish": "tacos"}, {"Amenity": "quick meal"}, {"Cuisine": "chinese"}, {"Cuisine": "chinese", "Location": "nearby", "Rating": "best ratings"}, {"Cuisine": "mexican"}, {"Dish": "texas chili"}, {"Cuisine": "light"}, {"Cuisine": "never tried before"}, {"Rating": "5 star", "Location": "closest"}, {"Cuisine": "chinese", "Price": "moderate"}, {"Cuisine": "diner", "Location": "along my route"}, {"Amenity": "family style , eat at the bar", "Location": "within two miles"}, {"Rating": "nice", "Amenity": "romantic <UNK> , <UNK>"}, {"Cuisine": "pizza", "Dish": "buffalo chicken", "Amenity": "credit card"}, {"Dish": "apple pie"}, {"Amenity": "romantic", "Location": "near me"}, {"Rating": "top of the line", "Cuisine": "steak", "Amenity": "valet parking"}, {"Amenity": "all you can eat", "Cuisine": "mexican buffet"}, {"Cuisine": "asian", "Amenity": "buffet"}, {"Price": "cheap", "Cuisine": "spanish"}, {"Location": "nearby", "Cuisine": "brazilian", "Amenity": "special occasion"}, {"Amenity": "lot of food", "Price": "not too much money"}, {"Price": "affordable", "Dish": "sushi"}, {"Rating": "good", "Amenity": "wine list", "Location": "within a mile", "Hours": "open before ten in the morning"}, {"Location": "nearest"}, {"Price": "budget"}, {"Price": "tight budget"}, {"Location": "closest"}, {"Cuisine": "fast food"}, {"Dish": "<UNK>", "Location": "here"}, {"Cuisine": "fast food"}, {"Location": "closest", "Restaurant_Name": "mcdonalds"}, {"Dish": "spanish tapas", "Location": "in port"}, {"Amenity": "family friendly , gift shop", "Location": "within 10 miles of sunswept hotel in orange beach"}, {"Amenity": "smoke"}, {"Cuisine": "indian"}, {"Restaurant_Name": "dairy queen", "Location": "nearby"}, {"Restaurant_Name": "albertos deli", "Hours": "open until 11 pm"}, {"Restaurant_Name": "azita restaurant", "Amenity": "date spot"}, {"Restaurant_Name": "<UNK>", "Location": "close by"}, {"Restaurant_Name": "chepes restaurant", "Location": "way"}, {"Restaurant_Name": "<UNK>", "Hours": "open today"}, {"Restaurant_Name": "<UNK> and busters", "Rating": "good", "Hours": "lunch"}, {"Restaurant_Name": "<UNK> pizza", "Hours": "after midnight"}, {"Restaurant_Name": "<UNK> pub", "Location": "in san <UNK>", "Amenity": "family friendly"}, {"Restaurant_Name": "golden house restaurant", "Amenity": "kids friendly"}, {"Restaurant_Name": "<UNK> ice cream shop", "Hours": "open right now"}, {"Restaurant_Name": "jade garden", "Location": "within a mile"}, {"Restaurant_Name": "outback"}, {"Restaurant_Name": "panera bread", "Hours": "breakfast"}, {"Restaurant_Name": "papa johns", "Location": "<UNK> way", "Hours": "still open"}, {"Restaurant_Name": "<UNK>", "Location": "dayton street"}, {"Restaurant_Name": "quiznos", "Hours": "breakfast"}, {"Restaurant_Name": "ruby tuesdays , tn", "Location": "chattanooga"}, {"Restaurant_Name": "santa ramen", "Location": "san <UNK>", "Hours": "thursday nights"}, {"Restaurant_Name": "<UNK> and hampton", "Price": "expensive"}, {"Restaurant_Name": "chau", "Location": "within a mile"}, {"Restaurant_Name": "amaral manuel", "Location": "near here", "Hours": "open after 12 pm"}, {"Restaurant_Name": "<UNK> restaurant", "Price": "affordable"}, {"Restaurant_Name": "hoseas restaurant", "Location": "nearby", "Amenity": "live music"}, {"Restaurant_Name": "mcdonalds", "Location": "near my house", "Hours": "open after midnight"}, {"Restaurant_Name": "<UNK> restaurant", "Rating": "good", "Hours": "lunch", "Price": "expensive"}, {"Amenity": "patio , dog friendly", "Restaurant_Name": "<UNK> and the <UNK>"}, {"Cuisine": "pizza , chinese", "Location": "closer"}, {"Price": "pricing fair"}, {"Restaurant_Name": "<UNK>", "Hours": "open , 11 am"}, {"Restaurant_Name": "<UNK> fresh mex grill", "Location": "within 10 miles , my house", "Cuisine": "hidden"}, {"Restaurant_Name": "seven <UNK> diner", "Price": "expensive"}, {"Restaurant_Name": "<UNK> steakhouse"}, {"Restaurant_Name": "tea garden restaurant", "Location": "<UNK>", "Amenity": "date night"}, {"Restaurant_Name": "<UNK> pasta", "Location": "north end", "Amenity": "business", "Hours": "lunch"}, {"Restaurant_Name": "tylers restaurant", "Location": "baltimore", "Price": "little"}, {"Cuisine": "indian", "Location": "in this town"}, {"Cuisine": "bakery", "Location": "near here"}, {"Cuisine": "bar", "Hours": "open after 2 am", "Location": "within a 5 minute distance"}, {"Restaurant_Name": "<UNK>", "Location": "this city"}, {"Restaurant_Name": "bojangles", "Location": "<UNK>"}, {"Hours": "breakfast", "Amenity": "valet parking"}, {"Amenity": "business", "Dish": "cakes", "Hours": "until 1 am"}, {"Cuisine": "cafe", "Dish": "<UNK> legs", "Location": "fort <UNK>"}, {"Price": "cheap", "Cuisine": "fast food", "Location": "nearby"}, {"Price": "cheap", "Cuisine": "vegetarian", "Location": "nearby"}, {"Restaurant_Name": "chick fil a", "Location": "within 5 miles"}, {"Cuisine": "chinese", "Amenity": "buffet , family style"}, {"Cuisine": "chinese", "Location": "<UNK> mall"}, {"Restaurant_Name": "chipotle", "Location": "with in a mile"}, {"Restaurant_Name": "<UNK> bella", "Location": "<UNK> st"}, {"Amenity": "club , bar", "Cuisine": "diner", "Location": "watertown"}, {"Cuisine": "deli", "Location": "nearby", "Amenity": "takes credit cards", "Hours": "open right now"}, {"Cuisine": "diner", "Amenity": "patio", "Location": "boxford"}, {"Restaurant_Name": "donut and donuts restaurant", "Location": "within 5 miles", "Amenity": "beer list"}, {"Amenity": "dress code", "Restaurant_Name": "yuris dine in restaurant"}, {"Rating": "five star", "Hours": "open late"}, {"Cuisine": "diner", "Location": "oakland"}, {"Rating": "good", "Location": "close by"}, {"Rating": "good", "Cuisine": "vegan", "Amenity": "kids"}, {"Cuisine": "halal", "Location": "downtown", "Amenity": "eat outside"}, {"Restaurant_Name": "hidden tudors <UNK> world", "Location": "this town"}, {"Restaurant_Name": "hooters", "Location": "in this area"}, {"Restaurant_Name": "jacks", "Location": "around here"}, {"Cuisine": "japanese", "Location": "near by"}, {"Cuisine": "korean", "Amenity": "<UNK> friendly"}, {"Cuisine": "korean", "Amenity": "nice decor", "Hours": "open late"}, {"Hours": "late night", "Location": "west newbury", "Amenity": "smoke"}, {"Restaurant_Name": "field corner", "Location": "near by", "Amenity": "happy hour"}, {"Cuisine": "malaysian", "Location": "roxbury crossing"}, {"Cuisine": "food court", "Location": "around here"}, {"Restaurant_Name": "mcdonalds", "Location": "between here and my destination"}, {"Restaurant_Name": "mcdonalds", "Location": "nearby"}, {"Restaurant_Name": "mcdonalds", "Location": "within two miles"}, {"Cuisine": "mexican", "Location": "near here", "Amenity": "large portion sizes"}, {"Price": "moderately", "Cuisine": "french", "Location": "in this area"}, {"Rating": "nice", "Location": "theater district", "Price": "wont <UNK> my <UNK>"}, {"Amenity": "nicely <UNK> , fireplace", "Location": "sacramento"}, {"Restaurant_Name": "olive garden", "Location": "nearby"}, {"Cuisine": "pancake house", "Location": "nearby"}, {"Amenity": "patio", "Restaurant_Name": "w a frost"}, {"Location": "near by", "Dish": "tapas"}, {"Cuisine": "breakfast", "Hours": "late"}, {"Amenity": "bring , alcohol"}, {"Location": "abington theatre district", "Hours": "after midnight"}, {"Amenity": "friendly and <UNK> atmosphere", "Dish": "steak"}, {"Hours": "open at 10 pm", "Location": "close by"}, {"Location": "place , nearby", "Cuisine": "high tea"}, {"Location": "walking distance of the <UNK>", "Dish": "pizza by the slice"}, {"Location": "within 10 minutes", "Amenity": "great atmosphere"}, {"Restaurant_Name": "ponderosa", "Location": "near here"}, {"Amenity": "pool side night club", "Location": "nearby"}, {"Cuisine": "portuguese", "Location": "nearby"}, {"Restaurant_Name": "<UNK> <UNK>", "Location": "north memphis"}, {"Price": "real cheap", "Location": "kendall square", "Hours": "at 8 pm"}, {"Price": "reasonably", "Amenity": "perfect portion sizes"}, {"Restaurant_Name": "red lobster", "Location": "area"}, {"Location": "around here", "Dish": "chicken wings"}, {"Location": "around", "Amenity": "watch a football game , kid friendly"}, {"Location": "close by", "Amenity": "dancing", "Dish": "<UNK>"}, {"Location": "close by", "Amenity": "valet parking"}, {"Hours": "after 9 pm 7 days a week"}, {"Location": "south end", "Amenity": "fireplace , serves good portions"}, {"Location": "way"}, {"Location": "waverly street", "Price": "priced <UNK>"}, {"Rating": "5 star rating"}, {"Dish": "tacos", "Hours": "before noon", "Location": "in charlestown"}, {"Amenity": "bar scene", "Location": "nearby", "Cuisine": "small portioned meals and snacks"}, {"Restaurant_Name": "<UNK>", "Location": "<UNK> mall"}, {"Restaurant_Name": "sclafani italian bakery", "Location": "nearby", "Amenity": "view"}, {"Cuisine": "seafood"}, {"Amenity": "small", "Location": "in franklin", "Dish": "beans"}, {"Amenity": "smoking section", "Restaurant_Name": "olive garden"}, {"Cuisine": "sports bar", "Location": "within a mile of the minneapolis convention center"}, {"Restaurant_Name": "starbucks", "Location": "west side of town"}, {"Restaurant_Name": "sudbury pizza place", "Location": "within 10 miles"}, {"Restaurant_Name": "<UNK> restaurant", "Location": "in the north end"}, {"Cuisine": "taco joint", "Location": "near the college"}, {"Restaurant_Name": "<UNK> el <UNK> <UNK>", "Location": "around here", "Amenity": "taking a date"}, {"Cuisine": "thai", "Rating": "great", "Amenity": "wine list"}, {"Cuisine": "vegan", "Location": "within 5 miles"}, {"Price": "very high end", "Cuisine": "pastry", "Location": "close to me"}, {"Restaurant_Name": "<UNK> <UNK>", "Amenity": "beer list"}, {"Restaurant_Name": "wangs fast food", "Location": "providence highway"}, {"Restaurant_Name": "white castle", "Location": "berkeley avenue"}, {"Restaurant_Name": "all asia cafe", "Location": "nearby"}, {"Restaurant_Name": "apple bees", "Location": "near by"}, {"Restaurant_Name": "applebees", "Location": "hicksville ny", "Amenity": "special 10 menu"}, {"Cuisine": "english", "Hours": "open until midnight", "Location": "in north <UNK>"}, {"Amenity": "<UNK> friendly", "Location": "nearby"}, {"Price": "expensive", "Restaurant_Name": "<UNK> and hampton", "Amenity": "dining services"}, {"Price": "expensive", "Location": "near here"}, {"Restaurant_Name": "ihop", "Location": "near by"}, {"Cuisine": "indian", "Location": "within 5 miles", "Hours": "dinner", "Amenity": "buffet"}, {"Cuisine": "italian bistro", "Location": "nearby"}, {"Cuisine": "italian", "Location": "nearby"}, {"Restaurant_Name": "olive garden", "Location": "kendall square", "Amenity": "private dining rooms"}, {"Hours": "open", "Restaurant_Name": "taco bell", "Location": "nearby"}, {"Location": "this part of town", "Cuisine": "thai"}, {"Restaurant_Name": "s and i to go", "Location": "nearby"}, {"Hours": "24 hour", "Cuisine": "deli", "Location": "west side of town"}, {"Cuisine": "chinese", "Location": "nearby"}, {"Cuisine": "cuban", "Location": "nearby", "Amenity": "authentic dining"}, {"Rating": "good", "Dish": "pizza", "Location": "in the area"}, {"Amenity": "bring your own liquor"}, {"Location": "in this area", "Amenity": "outdoor seating"}, {"Location": "nearby", "Cuisine": "seafood"}, {"Location": "waterfront", "Amenity": "not allow smoking , outside <UNK>"}, {"Hours": "open after 9 pm"}, {"Cuisine": "meal that , fast food"}, {"Amenity": "pet"}, {"Restaurant_Name": "red lobster", "Location": "by the mall"}, {"Location": "close by", "Amenity": "live music"}, {"Location": "in the city", "Dish": "<UNK>"}, {"Location": "near kendall square", "Amenity": "delivers", "Dish": "tea"}, {"Dish": "fried chicken", "Hours": "late night"}, {"Cuisine": "sandwich", "Location": "by the high school"}, {"Location": "kendall square", "Dish": "tea", "Amenity": "delivers"}, {"Location": "near here", "Hours": "24 hours", "Cuisine": "breakfast"}, {"Location": "near me", "Rating": "great", "Dish": "sandwich"}, {"Hours": "open past 1 am", "Price": "<UNK>"}, {"Hours": "after 10 p m"}, {"Cuisine": "caribbean", "Location": "around here"}, {"Location": "near by"}, {"Price": "moderately", "Location": "near"}, {"Restaurant_Name": "fatty fish", "Location": "long island"}, {"Amenity": "parking", "Restaurant_Name": "pierres"}, {"Amenity": "kid friendly"}, {"Amenity": "hidden find"}, {"Location": "local", "Rating": "favorite"}, {"Hours": "open 7 days"}, {"Restaurant_Name": "<UNK>", "Amenity": "smoke free"}, {"Restaurant_Name": "ye olde cottage restaurant", "Location": "way", "Amenity": "take some clients"}, {"Hours": "10 pm , open"}, {"Restaurant_Name": "donalds"}, {"Amenity": "kid friendly , nice service", "Location": "design center place", "Rating": "<UNK>"}, {"Restaurant_Name": "king fung garden two", "Amenity": "parking"}, {"Amenity": "fanciest", "Cuisine": "french", "Location": "in the city"}, {"Dish": "fries"}, {"Dish": "taco"}, {"Amenity": "<UNK> to families , location", "Location": "within a ten mile , current location"}, {"Location": "close"}, {"Location": "nearest , <UNK> th and ashland", "Restaurant_Name": "mcdonalds"}, {"Dish": "lobster roll"}, {"Location": "local", "Dish": "fish tacos"}, {"Location": "local", "Restaurant_Name": "hooters"}, {"Location": "local", "Restaurant_Name": "mcdonalds"}, {"Location": "local", "Amenity": "smoking areas"}, {"Location": "local", "Restaurant_Name": "subway"}, {"Rating": "five star", "Hours": "open after 10 pm"}, {"Dish": "milk shakes"}, {"Cuisine": "sushi"}, {"Restaurant_Name": "mcdonalds", "Location": "within 5 miles"}, {"Amenity": "all you can eat buffet"}, {"Dish": "alcohol"}, {"Location": "nearest", "Cuisine": "fast food"}, {"Location": "nearest"}, {"Price": "inexpensive", "Cuisine": "authentic mexican", "Location": "chattanooga <UNK>"}, {"Cuisine": "<UNK>"}, {"Rating": "5 star restaurant , great", "Dish": "<UNK>"}, {"Cuisine": "diner", "Amenity": "comfortable atmosphere , <UNK> setting"}, {"Location": "drive , close by", "Hours": "opened 24 7"}, {"Rating": "good", "Dish": "cheese fries"}, {"Price": "high", "Rating": "end", "Cuisine": "italian", "Location": "within , 5 miles"}, {"Restaurant_Name": "kfc"}, {"Amenity": "kid friendly", "Price": "mid"}, {"Rating": "highest <UNK> ratings"}, {"Price": "fair", "Location": "near"}, {"Cuisine": "<UNK>", "Location": "<UNK>", "Amenity": "online reservations"}, {"Rating": "three star", "Location": "along my current route within the next <UNK> miles , not more then a mile off route"}, {"Price": "expensive", "Cuisine": "seafood"}, {"Hours": "open before 7 a m", "Location": "nearby", "Amenity": "hip music"}, {"Cuisine": "breakfast", "Amenity": "byob"}, {"Cuisine": "californian", "Price": "great"}, {"Restaurant_Name": "crowd pleasing <UNK>", "Location": "along the way"}, {"Restaurant_Name": "<UNK> k bakery", "Location": "near", "Amenity": "stars hang out"}, {"Dish": "duck dish", "Price": "great", "Rating": "good rating"}, {"Restaurant_Name": "freebirds world burrito", "Hours": "open late"}, {"Cuisine": "hotel dining", "Location": "central square", "Price": "great"}, {"Location": "local", "Restaurant_Name": "pizzahut"}, {"Restaurant_Name": "<UNK> house of pizza", "Hours": "lunch", "Location": "close by"}, {"Price": "reasonably", "Cuisine": "diners"}, {"Restaurant_Name": "sebastians restaurant", "Amenity": "generous portions"}, {"Amenity": "star hangout", "Location": "close by", "Restaurant_Name": "marios italian restaurant"}, {"Dish": "sushi", "Amenity": "prix fixe menu", "Price": "reasonable"}, {"Cuisine": "tapas", "Price": "great"}, {"Price": "cheapest"}, {"Restaurant_Name": "<UNK> <UNK> cafe", "Location": "around here", "Price": "excellent"}, {"Dish": "tuna dishes", "Amenity": "offer parking"}, {"Cuisine": "<UNK> gourmet", "Location": "bay road", "Rating": "great"}, {"Price": "very cheap", "Cuisine": "sake", "Amenity": "allows smoking"}, {"Restaurant_Name": "black angus"}, {"Amenity": "reservation for 3 people", "Hours": "8 pm tonight", "Restaurant_Name": "melting pot", "Location": "<UNK>"}, {"Amenity": "reservation", "Hours": "six pm", "Cuisine": "french", "Rating": "4 star rating"}, {"Cuisine": "french", "Amenity": "dress code"}, {"Amenity": "reservation , for four", "Hours": "tonight", "Restaurant_Name": "<UNK> steakhouse"}, {"Amenity": "reservation , nonsmoking patio , isnt fancy", "Hours": "30 minutes from now"}, {"Restaurant_Name": "<UNK> italian"}, {"Hours": "business", "Location": "nearest", "Restaurant_Name": "red lobster"}, {"Cuisine": "mexican"}, {"Cuisine": "mexican", "Amenity": "to go"}, {"Cuisine": "mexican", "Location": "nearby"}, {"Price": "moderately", "Cuisine": "seafood"}, {"Dish": "espresso", "Location": "within 10 min"}, {"Amenity": "kids , lunch"}, {"Cuisine": "happy"}, {"Amenity": "sit outside", "Dish": "cheeseburgers"}, {"Dish": "burgers", "Location": "nearest", "Restaurant_Name": "five guys"}, {"Location": "local buffets"}, {"Cuisine": "thai", "Rating": "4 stars or higher"}, {"Location": "nearest", "Cuisine": "fast food"}, {"Rating": "four star", "Location": "in a hotel"}, {"Hours": "six pm , tonight", "Restaurant_Name": "the steak shack", "Location": "detroit"}, {"Restaurant_Name": "newbury street bakery and deli"}, {"Location": "nyc", "Rating": "5 star", "Dish": "pizza", "Restaurant_Name": "parlors"}, {"Amenity": "require suit <UNK> for men", "Rating": "best service and food"}, {"Rating": "high end", "Amenity": "clients"}, {"Cuisine": "japanese , indian", "Location": "near"}, {"Cuisine": "mexican", "Amenity": "smoking section", "Rating": "more then 1 star review"}, {"Amenity": "cocktails , lunch"}, {"Cuisine": "taco", "Location": "near my house"}, {"Cuisine": "italian", "Amenity": "child friendly"}, {"Price": "cheap", "Cuisine": "chinese", "Location": "nearby"}, {"Amenity": "child friendly , tv", "Cuisine": "diner"}, {"Amenity": "non smoking , on site parking", "Cuisine": "seafood"}, {"Location": "nearest", "Cuisine": "thai"}, {"Restaurant_Name": "<UNK> house of pancakes"}, {"Location": "closest", "Price": "midpriced", "Amenity": "sit down , kids meal", "Dish": "chicken <UNK> , macaroni"}, {"Location": "street address , area", "Restaurant_Name": "dennys"}, {"Location": "nearest", "Dish": "made to order , cheeseburger"}, {"Restaurant_Name": "burger king", "Location": "nearest me"}, {"Amenity": "allows smoking"}, {"Dish": "alcohol", "Location": "within 5 miles"}, {"Cuisine": "bar", "Location": "off of main street down town", "Amenity": "valet parking", "Hours": "open late", "Rating": "good reviews"}, {"Restaurant_Name": "mcdonalds"}, {"Amenity": "reservation", "Restaurant_Name": "jax cafe", "Hours": "7 pm"}, {"Amenity": "curb side pick up", "Location": "highway <UNK> south"}, {"Location": "closest", "Cuisine": "coffee", "Dish": "free <UNK> coffee"}, {"Cuisine": "sushi", "Location": "place"}, {"Rating": "highly rated", "Cuisine": "family diner"}, {"Cuisine": "pub"}, {"Dish": "hot dog"}, {"Price": "reasonably", "Amenity": "byob", "Cuisine": "irish"}, {"Restaurant_Name": "red lobster", "Amenity": "no smoking"}, {"Restaurant_Name": "red robins"}, {"Amenity": "caters to children , fun for parents and kids <UNK>"}, {"Location": "in the area"}, {}, {"Amenity": "<UNK>"}, {"Cuisine": "buffet", "Amenity": "smoke free environment", "Location": "within 5 miles of my location"}, {"Dish": "meatloaf"}, {"Amenity": "dine in"}, {"Cuisine": "fast food", "Amenity": "kid play area"}, {"Cuisine": "seafood"}, {"Price": "inexpensive", "Location": "within 10 miles"}, {"Location": "local", "Amenity": "smoking area"}, {"Amenity": "not <UNK>", "Location": "in my area"}, {"Amenity": "senior portions"}, {"Price": "cheap"}, {"Cuisine": "mexican", "Location": "arent too far"}, {"Location": "nearby", "Rating": "3 star or higher rating"}, {"Price": "moderately", "Cuisine": "japanese", "Location": "ten mile radius"}, {"Location": "closest", "Restaurant_Name": "wendys"}, {"Location": "nearest", "Restaurant_Name": "boston market"}, {"Location": "nearest", "Cuisine": "sports bar"}, {"Amenity": "smoke friendly"}, {"Dish": "<UNK>"}, {"Price": "arent bad", "Hours": "before 8 am"}, {"Restaurant_Name": "strega restaurant and lounge", "Cuisine": "local"}, {"Rating": "best", "Cuisine": "fish", "Location": "<UNK>"}, {"Cuisine": "tacos stand", "Location": "near my location"}, {"Rating": "best", "Cuisine": "dessert", "Hours": "today"}, {"Amenity": "hole in the wall", "Rating": "high reviews", "Hours": "open late", "Dish": "drinks"}, {"Location": "local"}, {"Rating": "nice", "Amenity": "generous portions"}, {"Rating": "would like"}, {"Location": "closest", "Amenity": "smoke"}, {"Location": "nearest", "Cuisine": "tex mex"}, {"Restaurant_Name": "chipotle", "Location": "midtown"}, {"Location": "5 minute drive"}, {"Rating": "good", "Location": "town"}, {"Cuisine": "thai"}, {"Price": "most expensive", "Location": "in town", "Amenity": "dress code , reservations"}, {"Hours": "opening times", "Location": "nearby", "Cuisine": "pizza"}, {"Dish": "tacos", "Restaurant_Name": "taco bell"}, {"Location": "nearest", "Cuisine": "fast food"}, {"Dish": "mushrooms", "Location": "near <UNK> avenue", "Hours": "before 7 am"}, {"Amenity": "<UNK> in", "Dish": "spagetti"}, {"Amenity": "kid friendly"}, {"Hours": "dinner", "Amenity": "dance"}, {"Amenity": "fine dining", "Location": "in the area"}, {"Rating": "best", "Location": "in this city"}, {"Location": "locally"}, {"Cuisine": "american", "Location": "with in one mile"}, {"Hours": "lunch", "Restaurant_Name": "<UNK>"}, {"Restaurant_Name": "siu kuen chinese restaurant"}, {"Restaurant_Name": "<UNK> cafe"}, {"Cuisine": "fast food", "Location": "next 6 miles of this road"}, {"Restaurant_Name": "<UNK>"}, {"Restaurant_Name": "red lobster"}, {"Restaurant_Name": "<UNK>"}, {"Cuisine": "italian"}, {"Restaurant_Name": "cappys pizza and subs"}, {"Rating": "three highest rated", "Location": "my area"}, {"Cuisine": "asian", "Amenity": "carry out"}, {"Dish": "chicken", "Location": "in the area"}, {"Amenity": "<UNK> wine <UNK>"}, {"Cuisine": "fast food", "Location": "near by"}, {"Rating": "best", "Dish": "dumplings", "Location": "in town"}, {"Rating": "high end", "Location": "nearby"}, {"Amenity": "family friendly", "Location": "dorche", "Cuisine": "vietnamese"}, {"Cuisine": "italian", "Location": "in , area", "Amenity": "family style"}, {"Restaurant_Name": "dominos"}, {"Restaurant_Name": "jack in the box"}, {"Restaurant_Name": "burger king", "Location": "route <UNK>"}, {"Restaurant_Name": "townline pizza", "Location": "in my city"}, {"Hours": "lunch", "Restaurant_Name": "olive garden"}, {"Price": "average", "Restaurant_Name": "ruby tuesday"}, {"Rating": "best", "Cuisine": "coffee house", "Location": "near here"}, {"Rating": "best", "Cuisine": "ice cream parlor"}, {"Rating": "best", "Cuisine": "mexican", "Location": "in town"}, {"Rating": "best", "Cuisine": "pizza", "Location": "theater district"}, {"Rating": "best", "Location": "around"}, {"Rating": "best", "Cuisine": "steak house", "Location": "kansas city <UNK>"}, {"Location": "closest", "Restaurant_Name": "<UNK> restaurant"}, {"Location": "closest", "Restaurant_Name": "chic fil a"}, {"Location": "closest", "Cuisine": "fast food"}, {"Location": "closest", "Restaurant_Name": "wendys"}, {"Restaurant_Name": "<UNK>"}, {"Restaurant_Name": "the <UNK>"}, {"Restaurant_Name": "planet hollywood"}, {"Amenity": "dress code", "Restaurant_Name": "ruth chris steakhouse"}, {"Price": "entree", "Restaurant_Name": "kiosque"}, {"Restaurant_Name": "sonic"}, {"Rating": "favorite", "Location": "out here"}, {"Rating": "highest rated", "Cuisine": "thai", "Location": "austin"}, {"Location": "closest , in the area", "Amenity": "eat in"}, {"Price": "most expensive", "Amenity": "dress code , valet parking", "Location": "within 15 miles"}, {"Cuisine": "italian", "Location": "near me"}, {"Price": "expensive", "Cuisine": "greek", "Location": "alston"}, {"Location": "within 50 miles of <UNK>", "Amenity": "<UNK> inside a <UNK>"}, {"Cuisine": "coffee", "Location": "seminary street"}, {"Location": "nearest", "Cuisine": "fast food"}, {"Location": "closest", "Cuisine": "chinese"}, {"Location": "nearby", "Dish": "garlic shrimp"}, {"Restaurant_Name": "bills pizza"}, {"Restaurant_Name": "mcdonalds", "Location": "east side of town"}, {"Restaurant_Name": "<UNK>", "Location": "oak street"}, {"Dish": "lobster", "Restaurant_Name": "martys marina"}, {"Restaurant_Name": "clarkes family restaurant"}, {"Restaurant_Name": "pho <UNK>", "Location": "mesa arizona"}, {"Restaurant_Name": "arbys"}, {"Restaurant_Name": "burger island"}, {"Restaurant_Name": "mcdonalds"}, {"Cuisine": "italian", "Hours": "open 24 hours", "Location": "dalton street"}, {"Restaurant_Name": "<UNK>"}, {"Restaurant_Name": "<UNK>"}, {"Dish": "fondue", "Restaurant_Name": "<UNK> <UNK>"}, {"Restaurant_Name": "<UNK> cafe"}, {}, {"Restaurant_Name": "<UNK>"}, {"Cuisine": "kosher", "Amenity": "smoking <UNK>"}, {"Location": "local", "Amenity": "outdoor play area"}, {"Location": "nearby", "Hours": "open past midnight", "Rating": "<UNK> service"}, {"Location": "nearby", "Amenity": "byob"}, {"Location": "nearby", "Rating": "best reviews"}, {"Location": "nearby", "Dish": "<UNK> <UNK>"}, {"Dish": "pancake", "Location": "nearby"}, {"Dish": "pizza", "Rating": "best toppings", "Location": "no farther than 4 miles"}, {"Location": "saugus", "Rating": "best", "Amenity": "decor"}, {"Price": "cheap", "Location": "here"}, {"Dish": "beer"}, {"Price": "<UNK> good"}, {"Location": "roxbury", "Hours": "open before 8 am", "Rating": "excellent service"}, {"Hours": "dinner late"}, {"Cuisine": "<UNK>", "Location": "colonel bell drive"}, {"Price": "cheap", "Cuisine": "vegan"}, {"Hours": "open till 10 pm"}, {"Cuisine": "middle eastern", "Rating": "great service"}, {"Price": "expensive", "Amenity": "entertainment"}, {"Hours": "open till 9 pm"}, {"Location": "nearby", "Price": "affordable"}, {"Location": "south side", "Cuisine": "<UNK>", "Dish": "sauce , chicken wings"}, {"Dish": "crab", "Location": "close by"}, {"Dish": "burritos", "Hours": "7 days per week"}, {"Amenity": "largest portions", "Dish": "meat", "Location": "within 10 mile"}, {"Location": "within 25 miles", "Rating": "<UNK>"}, {"Location": "museum"}, {"Location": "nearby"}, {"Hours": "open", "Location": "in the downtown area"}, {"Hours": "open past midnight"}, {"Hours": "still open this late"}, {"Location": "within 1 mile", "Price": "good"}, {"Location": "around here", "Amenity": "free wi fi"}, {"Location": "downtown", "Hours": "open after 9 p"}, {"Amenity": "large beer menu", "Location": "close to a hotel"}, {"Amenity": "nice family friendly", "Hours": "brunch , weekends"}, {"Location": "nearby", "Dish": "ribs , ice cream sundaes"}, {"Hours": "open after 2 am", "Location": "within 5 miles"}, {"Location": "closest", "Cuisine": "fast food"}, {"Cuisine": "seafood", "Location": "around here"}, {"Hours": "breakfast", "Restaurant_Name": "burger king"}, {"Restaurant_Name": "jollibees", "Hours": "open"}, {"Restaurant_Name": "<UNK>"}, {"Restaurant_Name": "king palace", "Amenity": "serve", "Dish": "dimsum", "Hours": "until"}, {"Restaurant_Name": "little johns", "Hours": "on sunday"}, {"Restaurant_Name": "mcdonalds", "Location": "main street"}, {"Hours": "time , stop serving food", "Restaurant_Name": "on the <UNK>", "Location": "seminary"}, {"Restaurant_Name": "papa johns", "Hours": "close"}, {"Restaurant_Name": "red robin"}, {"Restaurant_Name": "sonic burger"}, {"Restaurant_Name": "sonic", "Hours": "open"}, {"Hours": "does", "Restaurant_Name": "subway"}, {"Restaurant_Name": "burger king", "Location": "main street"}, {"Location": "nearest", "Restaurant_Name": "chipotle"}, {"Restaurant_Name": "pho place", "Location": "reno", "Hours": "close"}, {"Cuisine": "sushi", "Location": "near", "Hours": "open"}, {"Amenity": "happy hour", "Restaurant_Name": "juice shop"}, {"Restaurant_Name": "mcdonals", "Location": "near here"}, {"Restaurant_Name": "<UNK>"}, {"Restaurant_Name": "zaxbys"}, {"Rating": "<UNK>", "Amenity": "business"}, {"Price": "cheap", "Location": "near <UNK>", "Cuisine": "pakistani", "Dish": "<UNK>"}, {"Rating": "good", "Amenity": "casual date"}, {"Price": "nicely", "Cuisine": "southwestern", "Location": "near here"}, {"Rating": "popular"}, {"Price": "expensive", "Cuisine": "belgian", "Location": "san diego"}, {"Hours": "open after noon"}, {"Rating": "best", "Location": "locally", "Amenity": "owned", "Cuisine": "sub sandwich"}, {"Rating": "best", "Cuisine": "barbeque", "Location": "memphis"}, {"Rating": "best", "Cuisine": "french , cafe", "Location": "sacramento"}, {"Rating": "best", "Cuisine": "indian", "Location": "in the area"}, {"Rating": "best", "Dish": "cheese"}, {"Rating": "best", "Location": "within 10 blocks from us"}, {"Price": "cheapest", "Cuisine": "fast food", "Amenity": "play area"}, {"Location": "closest , nearby", "Price": "cheapest", "Cuisine": "bistro"}, {"Location": "closest", "Amenity": "chinese"}, {"Location": "closest", "Dish": "pizza"}, {"Location": "closest", "Cuisine": "full salad bar"}, {"Price": "most expensive", "Location": "back bay", "Hours": "open until midnight"}, {"Rating": "popular", "Cuisine": "steak house", "Location": "around here"}, {"Location": "nearest", "Cuisine": "pizza", "Dish": "anchovies"}, {"Amenity": "family owned", "Cuisine": "thai", "Location": "north side"}, {"Location": "i just <UNK>"}, {"Restaurant_Name": "bouchon", "Location": "napa"}, {"Restaurant_Name": "mcdonalds"}, {"Restaurant_Name": "better burger"}, {"Restaurant_Name": "churchs"}, {"Restaurant_Name": "dominos", "Hours": "open"}, {"Restaurant_Name": "pizza patron", "Hours": "open"}, {"Restaurant_Name": "subway", "Hours": "open"}, {"Restaurant_Name": "white castle", "Location": "close"}, {"Cuisine": "fast food joints", "Location": "driving distance"}, {"Cuisine": "mexican"}, {"Amenity": "formal dress code", "Location": "around here"}, {"Dish": "<UNK>"}, {"Dish": "fried chicken"}, {"Amenity": "dine outside", "Dish": "pork chops"}, {"Amenity": "sit down dinner", "Dish": "pho"}, {"Cuisine": "african", "Price": "cheap"}, {"Location": "around here"}, {"Amenity": "by the water", "Location": "close by"}, {"Dish": "pita bread", "Hours": "late at night"}, {"Amenity": "delivers food"}, {"Amenity": "valet parking"}, {"Price": "isnt cheap"}, {"Amenity": "wont need a reservation", "Location": "in 20 minutes"}, {"Cuisine": "cambodian", "Amenity": "sells ingredients"}, {"Price": "cheap", "Location": "peabody"}, {"Cuisine": "coffee", "Location": "within 10 miles", "Amenity": "not part of a chain"}, {"Restaurant_Name": "coffee zone", "Amenity": "dining at , bar", "Rating": "good rating"}, {"Restaurant_Name": "cracker barrel", "Location": "miami"}, {"Cuisine": "<UNK>", "Hours": "open after 11 pm"}, {"Rating": "good", "Location": "within miles"}, {"Rating": "good", "Dish": "pork <UNK>"}, {"Rating": "good", "Location": "theatre district"}, {"Price": "high end", "Location": "<UNK> street", "Hours": "open after 11 pm"}, {"Hours": "late night", "Cuisine": "taco joint"}, {"Cuisine": "gelato", "Amenity": "carryout"}, {"Amenity": "people watching", "Location": "nearby"}, {"Dish": "gelato"}, {"Dish": "pasta"}, {"Amenity": "great wine list"}, {"Location": "within 5 minutes", "Price": "great"}, {"Restaurant_Name": "rainforest cafe"}, {"Location": "near me"}, {"Amenity": "good portions", "Hours": "open at 9 p"}, {"Cuisine": "vegetarian", "Amenity": "senior discount"}, {"Cuisine": "seafood", "Amenity": "sells fresh fish"}, {"Amenity": "sports bar", "Location": "<UNK> county new york"}, {"Cuisine": "thai", "Amenity": "non smoking"}, {"Cuisine": "authentic mexican", "Price": "great"}, {"Restaurant_Name": "bobby hacketts"}, {"Price": "cheap", "Cuisine": "vegan"}, {"Cuisine": "irish"}, {"Cuisine": "halal", "Price": "price not so high"}, {"Restaurant_Name": "naugles"}, {"Amenity": "relaxed", "Hours": "open in the morning", "Location": "around beacon hill"}, {"Rating": "best", "Dish": "sushi", "Location": "in town"}, {"Price": "cheapest", "Dish": "burgers", "Location": "in town"}, {"Price": "cheapest", "Dish": "pizza"}, {"Price": "cheapest", "Amenity": "take out", "Cuisine": "chinese"}, {"Location": "closest", "Cuisine": "bakery"}, {"Rating": "highest rated", "Dish": "breakfast burrito"}, {"Dish": "tofu", "Location": "city hall plaza", "Amenity": "parking"}, {"Dish": "banana split"}, {"Dish": "burger"}, {"Price": "cheap", "Hours": "dinner"}, {"Price": "cheap", "Dish": "slice of pizza", "Location": "huntington ny"}, {"Rating": "good", "Dish": "bagel"}, {"Dish": "pizzas", "Location": "manhattan"}, {"Rating": "good", "Dish": "sandwich", "Price": "good"}, {"Dish": "tofu omelette", "Location": "<UNK>"}, {"Dish": "hamburger"}, {"Dish": "hamburger", "Location": "between <UNK> falls and <UNK>"}, {"Amenity": "healthy", "Hours": "lunch"}, {"Dish": "milkshake", "Location": "within walking distance"}, {"Dish": "pho king sized bowl"}, {"Dish": "drink", "Location": "kendall square"}, {"Dish": "taco", "Price": "for a dollar"}, {"Dish": "<UNK>", "Location": "american <UNK> highway"}, {"Dish": "bagels"}, {"Cuisine": "barbecue", "Location": "5 miles"}, {"Cuisine": "caribbean", "Location": "not far from here", "Amenity": "romantic setting"}, {"Price": "cheap", "Hours": "5 pm", "Location": "in alston"}, {"Price": "inexpensive", "Dish": "sushi", "Location": "glen cove ny"}, {"Dish": "doughnuts", "Hours": "now"}, {"Dish": "<UNK>"}, {"Dish": "fish"}, {"Amenity": "large portions , group", "Dish": "fish"}, {"Dish": "nachos", "Location": "within 1 mile", "Hours": "open late"}, {"Price": "reasonably", "Dish": "sashimi", "Hours": "8 pm"}, {"Dish": "chicken nuggets"}, {"Dish": "cookies"}, {"Dish": "crab", "Location": "nearby", "Hours": "open until 2 am"}, {"Cuisine": "fast food"}, {"Rating": "good", "Dish": "coffee"}, {"Dish": "ice cream"}, {"Dish": "macaroni and cheese"}, {"Dish": "shrimp"}, {"Dish": "<UNK>"}, {"Cuisine": "southern"}, {"Dish": "spaghetti"}, {"Dish": "sushi"}, {"Dish": "waffles"}, {"Price": "inexpensive", "Location": "near , current location"}, {"Restaurant_Name": "starbucks", "Location": "around me"}, {"Rating": "best", "Dish": "pie"}, {"Rating": "top rated", "Dish": "hamburger", "Location": "baltimore"}, {"Cuisine": "vegan"}, {"Price": "expensive", "Dish": "gelato", "Amenity": "carry out"}, {}, {"Dish": "sandwich", "Location": "around here"}, {"Rating": "glass", "Cuisine": "wine", "Location": "jamaica plain", "Amenity": "does not allow smoking"}, {"Dish": "fried chicken"}, {"Amenity": "date", "Location": "nearby", "Dish": "enchiladas"}, {"Amenity": "coworkers", "Price": "excellent"}, {"Amenity": "take my 5 year old"}, {"Amenity": "date", "Price": "cheap", "Location": "charlestown"}, {"Amenity": "kids", "Rating": "good", "Dish": "tacos"}, {"Amenity": "kids"}, {"Amenity": "kids", "Dish": "omelet"}, {"Amenity": "french inspired"}, {"Dish": "sushi", "Location": "waterfront"}, {"Rating": "good", "Dish": "tomato sauce", "Location": "10 minutes away", "Price": "excellent"}, {"Dish": "cakes", "Amenity": "business atmosphere", "Hours": "open until 1 am"}, {"Dish": "burger", "Amenity": "movie"}, {"Dish": "roast beef sandwich", "Hours": "right now"}, {"Restaurant_Name": "<UNK> and the <UNK>"}, {"Cuisine": "seafood", "Amenity": "bring my own drinks"}, {"Location": "beverly", "Restaurant_Name": "<UNK> little kitchen"}, {"Location": "theater district"}, {"Restaurant_Name": "bob evans", "Location": "<UNK> drive", "Amenity": "moderate portions"}, {"Price": "cheap", "Location": "north end", "Dish": "burritos"}, {"Rating": "good"}, {"Rating": "good", "Cuisine": "seafood"}, {"Rating": "good", "Location": "water"}, {"Amenity": "kid friendly , games", "Cuisine": "pizza"}, {"Cuisine": "kosher", "Hours": "for lunch"}, {"Hours": "late night , after 2 am", "Cuisine": "ethiopian"}, {"Price": "reasonably", "Cuisine": "japanese", "Location": "downtown"}, {"Hours": "open till midnight", "Location": "near west bridgewater", "Amenity": "really friendly service"}, {"Hours": "opens 24 hours"}, {"Amenity": "romantic place", "Cuisine": "sub", "Location": "near"}, {"Cuisine": "italian", "Amenity": "outdoor seating"}, {"Restaurant_Name": "<UNK> bakery", "Location": "along this route", "Amenity": "waterfront dining"}, {"Location": "charlotte nc"}, {"Restaurant_Name": "dominos"}, {"Restaurant_Name": "dominos pizza"}, {"Cuisine": "<UNK>"}, {"Restaurant_Name": "ii <UNK>"}, {"Restaurant_Name": "jack in the box"}, {"Restaurant_Name": "long john silvers"}, {"Restaurant_Name": "p f changs"}, {"Restaurant_Name": "pizza express"}, {"Restaurant_Name": "<UNK> restaurant and <UNK>", "Location": "<UNK>"}, {"Rating": "good", "Amenity": "outdoor dining"}, {"Restaurant_Name": "<UNK> bar", "Location": "<UNK>"}, {"Restaurant_Name": "station donuts"}, {"Restaurant_Name": "subway"}, {"Dish": "burgers , fries", "Amenity": "watch a movie"}, {"Restaurant_Name": "apple store", "Location": "in the area"}, {"Rating": "best", "Cuisine": "italian", "Location": "in the city"}, {"Rating": "best", "Cuisine": "korean bbq"}, {"Rating": "best", "Cuisine": "mediterranean"}, {"Rating": "best rated", "Cuisine": "fast food"}, {"Rating": "best reviewed", "Dish": "burger and fries", "Location": "near beacon hill"}, {"Price": "cheapest", "Location": "nearest"}, {"Location": "closest", "Rating": "5 star"}, {"Location": "closest", "Restaurant_Name": "apple bees"}, {"Location": "closest , my current location", "Restaurant_Name": "chillis"}, {"Location": "closest", "Cuisine": "fine dining"}, {"Location": "closest", "Amenity": "happy hour"}, {"Location": "closest", "Restaurant_Name": "<UNK> <UNK>"}, {"Location": "closest", "Restaurant_Name": "<UNK> johns"}, {"Location": "closest", "Amenity": "non smoking"}, {"Location": "closest", "Restaurant_Name": "pizza hut"}, {"Location": "closest", "Price": "cheap", "Dish": "potatoes"}, {"Location": "closest", "Dish": "pizza"}, {"Location": "closest", "Restaurant_Name": "red robin"}, {"Location": "closest", "Cuisine": "chinese"}, {"Location": "closest", "Cuisine": "sub , sandwich", "Dish": "gyros"}, {"Location": "closest , my zip code", "Cuisine": "sushi bars"}, {"Location": "closest", "Restaurant_Name": "tgi fridays"}, {"Location": "closest", "Restaurant_Name": "tim hortons restaurant"}, {"Restaurant_Name": "taco bell"}, {"Location": "nearest", "Rating": "4 star"}, {"Location": "nearest", "Restaurant_Name": "asia express restaurant"}, {"Location": "nearest", "Cuisine": "bar", "Amenity": "dinning"}, {"Location": "nearest", "Amenity": "buffet"}, {"Location": "nearest", "Cuisine": "burger"}, {"Location": "nearest", "Amenity": "casual"}, {"Location": "nearest", "Cuisine": "chinese", "Rating": "more than 3 stars", "Price": "under 10"}, {"Location": "nearest", "Amenity": "family"}, {"Location": "nearest", "Cuisine": "ice cream"}, {"Location": "nearest", "Cuisine": "kosher"}, {"Location": "nearest", "Cuisine": "mexican", "Hours": "open late , dinner"}, {"Location": "nearest", "Restaurant_Name": "napoli pizzeria"}, {"Location": "nearest", "Dish": "smoothie"}, {"Location": "nearest", "Dish": "nachos"}, {"Location": "nearest", "Amenity": "dining patio"}, {"Location": "nearest , within 5 miles", "Amenity": "game room for kids"}, {"Location": "nearest", "Amenity": "indoor smoking"}, {"Location": "nearest", "Dish": "hush puppies"}, {"Location": "nearest", "Dish": "steak"}, {"Location": "nearest", "Amenity": "casual kid friendly"}, {"Location": "nearest"}, {"Location": "nearest", "Cuisine": "sushi bar"}, {"Location": "nearest", "Amenity": "take out", "Cuisine": "chinese"}, {"Location": "nearest", "Cuisine": "tapas"}, {"Location": "nearest , alston", "Cuisine": "thai"}, {"Location": "nearest", "Restaurant_Name": "<UNK>", "Amenity": "patio seating"}, {"Location": "nearest uptown"}, {"Location": "next", "Restaurant_Name": "mcdonald"}, {"Amenity": "byob", "Location": "2 miles from here"}, {"Restaurant_Name": "<UNK> station coffee <UNK>", "Location": "<UNK> ave", "Cuisine": "breakfast"}, {"Restaurant_Name": "<UNK> bar", "Location": "<UNK>"}, {"Restaurant_Name": "<UNK>", "Amenity": "interesting people"}, {"Rating": "good", "Price": "mid", "Location": "near 4 th street", "Cuisine": "appetizers"}, {"Rating": "great", "Dish": "steak", "Location": "near here", "Amenity": "buffet"}, {"Restaurant_Name": "wing stop"}, {"Rating": "great"}, {"Location": "within 1 mile from here"}, {"Cuisine": "tacos", "Location": "near central park"}, {"Amenity": "kid friendly", "Cuisine": "diner", "Location": "within , hour of here"}, {"Location": "closest", "Restaurant_Name": "mcdonalds"}, {"Restaurant_Name": "papa johns"}, {"Rating": "best", "Cuisine": "korean", "Location": "in the area"}, {"Location": "closes", "Cuisine": "chicken"}, {"Location": "closest", "Rating": "5 star"}, {"Location": "closest", "Cuisine": "bar"}, {"Location": "closest", "Dish": "pizza"}, {"Cuisine": "italian", "Location": "downtown", "Hours": "open until midnight"}, {"Location": "local", "Restaurant_Name": "el <UNK> <UNK> <UNK>"}, {"Location": "local", "Cuisine": "soup and sandwich"}, {"Location": "nearest", "Cuisine": "french"}, {"Location": "nearest", "Cuisine": "italian"}, {"Location": "nearest , <UNK> white <UNK> movie theater", "Cuisine": "pizza"}, {"Location": "nearest"}, {"Location": "nearest", "Rating": "3 star rating or better", "Dish": "hamburger", "Price": "under five dollars"}, {"Location": "nearest", "Amenity": "childrens menu"}, {"Restaurant_Name": "<UNK> inn"}, {"Cuisine": "authentic mexican", "Dish": "complementary chips and <UNK>"}, {"Rating": "five star , best reviews", "Cuisine": "italian", "Location": "<UNK>"}, {"Location": "local", "Amenity": "only", "Cuisine": "seafood"}, {"Location": "nearby", "Rating": "best", "Dish": "steak"}, {"Amenity": "kid friendly"}, {"Cuisine": "pizza", "Amenity": "deliver"}, {"Amenity": "large portions"}, {"Location": "within 5 minutes", "Amenity": "healthy portions"}, {"Rating": "better rating", "Restaurant_Name": "<UNK> , fuji ya"}, {"Amenity": "smoking section"}, {"Dish": "fried pickles", "Amenity": "appetizers"}, {"Location": "my city", "Rating": "highest reviews"}, {"Hours": "open late", "Price": "good", "Dish": "<UNK>"}, {"Cuisine": "vegetarian", "Location": "in my city"}, {"Hours": "open after midnight on a wednesday"}, {"Location": "around my city", "Rating": "best", "Cuisine": "<UNK>"}, {"Amenity": "<UNK>"}, {"Location": "near here", "Hours": "open till midnight"}, {"Amenity": "outdoor dining"}, {"Dish": "grass fed beef steaks", "Price": "best"}, {"Restaurant_Name": "tim hortons", "Location": "closest to detroit"}, {"Amenity": "delivery", "Location": "washington court", "Price": "reasonable"}, {"Rating": "good", "Dish": "burgers", "Location": "around here"}, {"Amenity": "happy hour", "Hours": "right now"}, {"Rating": "best", "Dish": "lobster", "Location": "in town"}, {"Rating": "best", "Dish": "pizza", "Amenity": "credit cards"}, {"Rating": "best selection", "Dish": "<UNK> <UNK> , <UNK> beers"}, {"Rating": "<UNK> best", "Dish": "sausage"}, {"Rating": "best", "Dish": "burgers", "Location": "in town"}, {"Rating": "best", "Dish": "chicken wings", "Location": "in town"}, {"Cuisine": "cali"}, {"Cuisine": "who serves , best", "Dish": "wings", "Location": "in this town"}, {"Rating": "best", "Dish": "party subs", "Location": "town"}, {"Amenity": "romantic", "Hours": "tonight"}, {"Restaurant_Name": "waffle house", "Amenity": "<UNK> visa gift card"}, {"Restaurant_Name": "mcdonalds", "Location": "patchogue new york"}, {"Cuisine": "diner", "Location": "south street"}, {"Dish": "chicken", "Restaurant_Name": "<UNK> <UNK> <UNK>"}, {"Dish": "onion rings"}]